Restaurant_name,Ranking,Région,Commune,City,Adresse,Téléphone
AGORA BEACH,1 fourchette,Souss Massa,Agadir Ida Outanane,Agadir,Front de mer- Agadir,05 28 82 00 82
AL OMARA,1 fourchette,Souss Massa,Agadir Ida Outanane,Agadir,Complexe Tawada- Agadir,05 28 82 80 60
AMASSI SAHARAT,1 fourchette,Souss Massa,Agadir Ida Outanane,Agadir,Bd Med V- Agadir,0620-037942
ACTOR'S STUDIO,1 fourchette,Souss Massa,Agadir Ida Outanane,Agadir,Bd. 20 Août- Agadir,+212 5288-40927
ARDOISE GOURMANDE,1 fourchette,Souss Massa,Agadir Ida Outanane,Agadir,Bd Hassan II- Agadir,06 60 47 59 40
BALLENA,1 fourchette,Souss Massa,Agadir Ida Outanane,Agadir,Complexe Tawada,528823608
BRAZILIA AGADIR,1 fourchette,Souss Massa,Agadir Ida Outanane,Agadir,Complexe Tivoli- Agadir,0645-414141
CAMELS,1 fourchette,Souss Massa,Agadir Ida Outanane,Agadir,Corniche agadir,06 73 17 79 09
CANTANZARO,1 fourchette,Souss Massa,Agadir Ida Outanane,Agadir,Bd 20 Août - Agadir,05 28 84 05 13
CAP BRETON,1 fourchette,Souss Massa,Agadir Ida Outanane,Agadir,Complexe Agador,05 28 84 32 83
CHEMS AYOUR,2 fourchettes,Souss Massa,Inezgane Ait Melloul,Temessia,Temessia,05 28 31 97 97
CHEZ PASCAL,1 fourchette,Souss Massa,Agadir Ida Outanane,Agadir,"N° 3 Rue Sidi Abdallah oul hadj Talborjt , Agadir",0528826011 / 0528826011
CLUB HOUSE,2 fourchettes,Souss Massa,Agadir Ida Outanane,Taghazout,Nouvelle station touristique de Taghazout,+212 (0)5 28 29 69 69
CÔTÉ COURT AGADIR,1 fourchette,Souss Massa,Agadir Ida Outanane,Agadir,"Club de tennis, Bv. Hassan II Agadir",0671-957133
DA CELSI,1 fourchette,Souss Massa,Agadir Ida Outanane,Agadir,Complexe Tawada- Agadir,05 28 84 87 44
CASA ESPANIA,2 fourchettes,Souss Massa,Agadir Ida Outanane,Agadir,IMMEUBLE A - Agadir,05 28 84 33 35
DOUBLE YOU,1 fourchette,Souss Massa,Agadir Ida Outanane,Agadir,Bd Med V- Agadir,661048387
XTREM GROUP,3 fourchettes,Souss Massa,Agadir Ida Outanane,Agadir,Complexe Tawada - Agadir,05 28 82 83 31
LE Z,1 fourchette,Souss Massa,Agadir Ida Outanane,Agadir,"Bd. du 20 Août , Complexe Tagadirt, AGADIR",05 28 84 75 56
EL TORO,1 fourchette,Souss Massa,Agadir Ida Outanane,Agadir,Front de mer- Agadir,528845856
EVASION BEACH CLUB,2 fourchettes,Souss Massa,Tiznit,Aglou,Aglou,06 51 96 67 04
FOUQUET's,2 fourchettes,Souss Massa,Agadir Ida Outanane,Agadir,Bd 20 Août - Agadir,528841686
FOLIE BERBERE,2 fourchettes,Souss Massa,Agadir Ida Outanane,Agadir,Aghrod Bensergaw- Agadir,05 28 28 35 31
GOLDEN GATE,2 fourchettes,Souss Massa,Agadir Ida Outanane,Agadir,Bd 20 Août - Agadir,05 28 84 08 20
HARROUD LOUNGE,1 fourchette,Souss Massa,Agadir Ida Outanane,Agadir,Av. Général Kettani- Agadir,0611-339822
JARDIN D’EAU,2 fourchettes,Souss Massa,Agadir Ida Outanane,Agadir,Bd 20 Août - Agadir,05 28 84 01 95
JARDINO,1 fourchette,Souss Massa,Agadir Ida Outanane,Agadir,Complexe Tawada Agadir,0661-102782
JOUR ET NUIT,3 fourchettes,Souss Massa,Agadir Ida Outanane,Agadir,La Corniche Agadir,05 28 82 02 48
KIM HOA,1 fourchette,Souss Massa,Agadir Ida Outanane,Agadir,Bd 20 Aout – Agadir,05 28 82 28 88
L’EDEN,1 fourchette,Souss Massa,Agadir Ida Outanane,Agadir,Port d’Agadir- Agadir,+212 5288-48596
LA BRASSERIE,1 fourchette,Souss Massa,Agadir Ida Outanane,Agadir,Front de mer- Agadir,+212 5288-21919
LA COTE D’OR,2 fourchettes,Souss Massa,Agadir Ida Outanane,Agadir,Front de mer- Agadir,05 28 84 55 66
LA LAMPARA,1 fourchette,Souss Massa,Agadir Ida Outanane,Agadir,Complexe Tamelalt- Agadir,05 28 82 08 91
LA PAMPA,1 fourchette,Souss Massa,Agadir Ida Outanane,Agadir,Immeuble A- Agadir,+212 5288-46410
LA SCALA,3 fourchettes,Souss Massa,Agadir Ida Outanane,Agadir,Rue Oued Souss- Agadir,05 28 84 67 73
LA STORIA,1 fourchette,Souss Massa,Agadir Ida Outanane,Agadir,9 Imm A Place Prince héritier,666634532
LA TRUITE,1 fourchette,Souss Massa,Agadir Ida Outanane,Agadir,Passage Ait Souss – Agadir,+212 5288-43100
LE 20',1 fourchette,Souss Massa,Agadir Ida Outanane,Agadir,Bd 20 Août - Agadir,05 28 84 08 05
Le 7EME ART,1 fourchette,Souss Massa,Agadir Ida Outanane,Agadir,"Immeuble Ifrane II, QI Agadir",05.28.84.84.80
LE CESAR,1 fourchette,Souss Massa,Agadir Ida Outanane,Agadir,Bd Oued Souss – Agadir,05 28 84 12 65
LE CHANTS D’OISEAUX,1 fourchette,Souss Massa,Agadir Ida Outanane,Agadir,Bd. 20 Août Agadir,06 33 42 23 78
LE FESTIVAL,1 fourchette,Souss Massa,Agadir Ida Outanane,Agadir,Bd Med V Agadir,05 28 82 70 81
LE FLORE,1 fourchette,Souss Massa,Agadir Ida Outanane,Agadir,La Corniche Agadir,05 28 84 88 39
LE MAXWELL,1 fourchette,Souss Massa,Agadir Ida Outanane,Agadir,"Complexe Almanader, Agadir",05 28 84 05 80
LE SAVANAH,2 fourchettes,Souss Massa,Agadir Ida Outanane,Agadir,Fondation Hassan II- Agadir,05 28 84 79 47
LE VENDOME,1 fourchette,Souss Massa,Agadir Ida Outanane,Agadir,La corniche- Agadir,05 28 82 56 11
LES BLANCS,1 fourchette,Souss Massa,Agadir Ida Outanane,Agadir,La corniche- Agadir,05 28 82 83 68
LITTLE ITALY,1 fourchette,Souss Massa,Agadir Ida Outanane,Agadir,Bd Hassan II – Agadir,05 28 82 00 39
LITTLE NORWAY,1 fourchette,Souss Massa,Agadir Ida Outanane,Agadir,Bd Oued Souss Agadir,05 28 84 08 48/ 06 73 80 03 10
LOFT (EX : L’ETOILE DU SUD),2 fourchettes,Souss Massa,Agadir Ida Outanane,Agadir,"Avenue Med V, Agadir","2,12528E+11"
JALASSAT,1 fourchette,Souss Massa,Agadir Ida Outanane,Agadir,CMPLEXE TIVOLI,06-14-630-834
MEZZO MEZZO,1 fourchette,Souss Massa,Agadir Ida Outanane,Agadir,Bd Hassan II – Agadir,05 28 84 88 19
MIMI LA BROCHETTE,1 fourchette,Souss Massa,Agadir Ida Outanane,Agadir,La Corniche Agadir,05 28 82 21 44
NAYA,1 fourchette,Souss Massa,Agadir Ida Outanane,Agadir,Secteur Touristique,+212 656-361912
O CASCADES,1 fourchette,Souss Massa,Agadir Ida Outanane,Agadir,Bd Med V- Agadir,05 28 82 73 733
Ô PLAYA,1 fourchette,Souss Massa,Agadir Ida Outanane,Agadir,Front de mer- Agadir,0662-284838
OCEANA,,Souss Massa,Agadir Ida Outanane,Agadir,La Corniche Agadir,05 28 82 74 53
"ORANGERAIE, DYAR SHEMSI",2 fourchettes,Souss Massa,Taroudant,Ouled teima,CR d’Issen Taroudannt,680827931
Pirate Pub,1 fourchette,Souss Massa,Agadir Ida Outanane,Agadir,Front de mer- Agadir,+212 661-265563
PLAGE BLEU,1 fourchette,Souss Massa,Agadir Ida Outanane,Agadir,2 Front de Mer Secteur Touristique,+212 5288-42092
PURE PASSION,2 fourchettes,Souss Massa,Agadir Ida Outanane,Agadir,Marina Agadir,212 5288-40120
RUGANTINO,2 fourchettes,Souss Massa,Agadir Ida Outanane,Agadir,Complexe Almougar Corniche d’ Agadir,05 28 84 14 25
RYAD ENASIM,1 fourchette,Souss Massa,Agadir Ida Outanane,Agadir,Bloc F Complex Tivoli,0649-187150
SCAMPI,1 fourchette,Souss Massa,Agadir Ida Outanane,Agadir,Bd Hassan II- Agadir,0528 84 40 54
TIO PEPE,1 fourchette,Souss Massa,Agadir Ida Outanane,Agadir,Complexe Tafoukt - Agadir,05 28 84 00 49
LE DOME,3 fourchettes,Souss Massa,Agadir Ida Outanane,Agadir,Bd Hassan II Agadir,05 28 84 45 03
VENEZIA,1 fourchette,Souss Massa,Agadir Ida Outanane,Agadir,Complexe Tawada - Agadir,05 28 82 46 43
VIA VENETO,1 fourchette,Souss Massa,Agadir Ida Outanane,Agadir,Bd Hassan II – Agadir,05 28 84 14 67
WINE WINE,1 fourchette,Souss Massa,Agadir Ida Outanane,Agadir,Bd 20 Août - Agadir,05 28 84 02 08
WANASSA,1 fourchette,Souss Massa,Agadir Ida Outanane,Agadir,Bd 20 Août - Agadir,0630-359533
GRAND BLEU,1 fourchette,Souss Massa,Agadir Ida Outanane,Agadir,"Bd. Tawada, Front De Mer, Agadir",+212 5288-22788
O DE L'HA,1 fourchette,Souss Massa,Agadir Ida Outanane,Agadir,Corniche agadir,+212 635-452873
LE NIL BLEU,1 fourchette,Souss Massa,Agadir Ida Outanane,Agadir,Corniche agadir,+212 5288-41617
WORLD OF WAVES,1 fourchette,Souss Massa,Agadir Ida Outanane,Taghazout,"Font de mer, Villa Tizniti, Taghazout",+212 5282-00037
Restaurant Prestige Mirador,1 fourchette,Tanger-Tétouan-Al Hoceima,Al Hoceima,Al Hoceima,"Espace Mirador, Al Hoceima",05 39 98 09 02
Restaurant « AKABAR »,1 fourchette,Béni Mellal-Khénifra,Khénifra,Khénifra,AV des FAR khénifra,0661 18 25 04
Restaurant « Au Bon Délice »,1 fourchette,Béni Mellal-Khénifra,Khénifra,Khénifra,AV des FAR khénifra,0666 57 55 66
Al Forno,1 fourchette,Casablanca-Settat,_,Casa-anfa,Angle Bd Abdellatif Benkadddour et Ahmed Charci,0522 36.64.47
Al Mounia,1 fourchette,Casablanca-Settat,_,Casa-anfa,"95, Rue Prince My Abdellah",0522.22.26.69
Buena Fourchetta,1 fourchette,Casablanca-Settat,_,Casa-anfa,"90, rue Jean Jaures",0522 48.48.75
Camélia,1 fourchette,Casablanca-Settat,_,Casa-anfa,"59, rue Allal Ben Abdellah",0522 44 39 62
Don Camillo,1 fourchette,Casablanca-Settat,_,Casa-anfa,"15, R Abou regrag",0522 31.16.44
Galleto do brazile,1 fourchette,Casablanca-Settat,_,Casa-anfa,"140, Bd d’ Anfa",0522 39.02.51
Hyppopotamus,1 fourchette,Casablanca-Settat,_,Casa-anfa,Angle rue Malherbe Place Chaouia Quartier Gauthier,0522 27 97 47
Imilchil,1 fourchette,Casablanca-Settat,_,Casa-anfa,"27, rue Vizir Tazi",0522 22.09.99
Chez flavio,1 fourchette,Casablanca-Settat,_,Casa-anfa,55-57 Rue Mustapha Manfalouti Angle 1701 Bd Zerktouni Gauthier,0522 26 85 61-41
Kazbar,1 fourchette,Casablanca-Settat,_,Casa-anfa,"7, Rue Ollier",0522 20.47.47
Kiotori,1 fourchette,Casablanca-Settat,_,Casa-anfa,"8, rue commissaire Ladeuil",0522 47.16.68
L’Entr’ Act,1 fourchette,Casablanca-Settat,_,Casa-anfa,50-Angle Rue de l Chaouia et Kamal Mohamed,0522 31 00 25
L’étoile du Plazza,1 fourchette,Casablanca-Settat,_,Casa-anfa,"74, Bd Abdelatif Ben kaddour",0522 94.30.98
La Chacha,1 fourchette,Casablanca-Settat,_,Casa-anfa,Rue Commissaire Ladeuil,0522 22.66.58
La Squala,1 fourchette,Casablanca-Settat,_,Casa-anfa,Bd des Almohads Place Sidi Allal Quarouani,0522 26.09.60
La Broche,1 fourchette,Casablanca-Settat,_,Casa-anfa,"123, rue El Araar- Mers Sultan-",0522 29.39.94/ 0522 27.85.99
Broche Brioche,1 fourchette,Casablanca-Settat,_,Casa-anfa,Angle rue sii Mohamed Ben Abdellah & Bd de la Corniche,0522 27 80 81
Le Kobé d’or,1 fourchette,Casablanca-Settat,_,Casa-anfa,"9, rue Abou Salt Al Andaloussie",0522 98.07.32
Le Rencard,1 fourchette,Casablanca-Settat,_,Casa-anfa,rue Charm Echeikh- Quartier Palmier,0522 98.04.44
Les Fleurs,1 fourchette,Casablanca-Settat,_,Casa-anfa,"42, Av des F.A.R,",0522 31.27.35/ 0522 31.27.51
Picasso,1 fourchette,Casablanca-Settat,_,Casa-anfa,"35, Av. Hassan Souktani,",0522 22.53.22
Riad Zitoun,1 fourchette,Casablanca-Settat,_,Casa-anfa,"31, Boulevard Rachidi",0522 22.39.27
Sorrento,1 fourchette,Casablanca-Settat,_,Casa-anfa,"5, rue Meydani ex rue clouny",0522.99.63.92
Spasso,1 fourchette,Casablanca-Settat,_,Casa-anfa,"5, rue Abou Chouaïb. Quartier Gauthier",0522 43 42 11
Taverne de Dauphin,1 fourchette,Casablanca-Settat,_,Casa-anfa,"115, Bd Houphouet Boigny",0522 22.12.00/ 0522 27.79.79
Toscana,1 fourchette,Casablanca-Settat,_,Casa-anfa,"7, rue Yaala Alifrani- racine",0522 36 95 92
Terazzo,1 fourchette,Casablanca-Settat,_,Casa-anfa,Angle rue Colbert et Rue Abdelkrim Diouri,
Vinh along,1 fourchette,Casablanca-Settat,_,Casa-anfa,"22, R. Attaous (ex Belfort ), Casablanca.",0522.44.64.57
La Boqueria,1 fourchette,Casablanca-Settat,_,Casa-anfa,"Résidence Alia, Rue Driss Ben Abdeslam, n° 10-14, Bir Anzarane, maarif",0522 23.65.23
K-Vali Room,1 fourchette,Casablanca-Settat,_,Casa-anfa,"8, Rue Mer Jaune, Ain Diab",0522 79.69.73
Haistee,1 fourchette,Casablanca-Settat,_,Casa-anfa,"9, Rue Ahmed El Mokri, Quartier racine",0522 39 68 96
Des Billards,1 fourchette,Casablanca-Settat,_,Casa-anfa,"25, Rue Neuf Brisach",0522 31 44 52
MATSURI,1 fourchette,Casablanca-Settat,_,Casa-anfa,"6, Rue Ahmed Lazrak, Boulevard Biranzarane, Maarif",05-22-25-11-88
EL Cachero,1 fourchette,Casablanca-Settat,_,Casa-anfa,"27, Rue Mustapha El Manfalouti, Casablanca",0522 45 13 13
Au four à bois,2 fourchettes,Casablanca-Settat,_,Casa-anfa,"20, Rue Jean Jaures,",0522.22.17.18
Aux Crevettes,2 fourchettes,Casablanca-Settat,_,Casa-anfa,"12, rue Biarritz Ain Diab,",0522.79.78.85
Brasserie Bavaroise,2 fourchettes,Casablanca-Settat,_,Casa-anfa,"129, R. Allal Ben Abdellah,",0522.31.17.60/ 0522.45.08.17
Cléopâtre,2 fourchettes,Casablanca-Settat,_,Casa-anfa,Bd de la Corniche,
Kim Mon,2 fourchettes,Casablanca-Settat,_,Casa-anfa,"160, Av Mer Sultan",0522.26.32.26
Don Giovanni,2 fourchettes,Casablanca-Settat,_,Casa-anfa,"89, rue Ibn Mounir (ex Esterel) Maârif",0522.25.19.19
El Gousto,2 fourchettes,Casablanca-Settat,_,Casa-anfa,"17, Rue Bab Ifrane Quartier Racine extension",0522.36.57.57
India Palace,2 fourchettes,Casablanca-Settat,_,Casa-anfa,23-25 Rue Ahmed El Mokri – Quartier Racine,0522.36.92.26
L’Aéropostale,2 fourchettes,Casablanca-Settat,_,Casa-anfa,"6, R. Molière Casablanca",0522.36.02.52/6
Le Quai Du Jazz,2 fourchettes,Casablanca-Settat,_,Casa-anfa,"25, rue Ahmed El Mokri - 20 000 Casablanca",0522.94.25.37
Manhattan,2 fourchettes,Casablanca-Settat,_,Casa-anfa,"16, rue de la mer noire, la Corniche Casablanca",0522.79.86.30/31
Med Garden,2 fourchettes,Casablanca-Settat,_,Casa-anfa,"23, rue Ali Abderazak, Racine,",0522.39.53.37
Millennium Viet,2 fourchettes,Casablanca-Settat,_,Casa-anfa,"8, rue Molière Bd d’Anfa",0522 39 22 44
Ostrea,2 fourchettes,Casablanca-Settat,_,Casa-anfa,Port de Pêche,0522.44.13.90/91
Paul Prestige,2 fourchettes,Casablanca-Settat,_,Casa-anfa,Bd d’Anfa et Bd My Rachid,0522.36.21.22/ 0522.36.60.00
Port de pêche,2 fourchettes,Casablanca-Settat,_,Casa-anfa,Port de Pêche,0522.31.85.61/ 0522.45.11.14
Rick’s Café,2 fourchettes,Casablanca-Settat,_,Casa-anfa,"248 Bd Sour Jdid Place du Jardin Public, Ancienne Medina""",0522.27.42.07/08
Vignault,2 fourchettes,Casablanca-Settat,_,Casa-anfa,"135, rue Abou Ishak al Marouni",0522.77.41.56
Villa Roma,2 fourchettes,Casablanca-Settat,_,Casa-anfa,"8, Angle rue Hassan souktani et Washington Quartier Gauthier",0522.48.45.11
VIP,2 fourchettes,Casablanca-Settat,_,Casa-anfa,Rue des Dunes,0522 79 89 89
Comptoir du saumon,2 fourchettes,Casablanca-Settat,_,Casa-anfa,"54, R. Jean Jaurès",0522.48.24.06
Brasserie Nicole,2 fourchettes,Casablanca-Settat,_,Casa-anfa,"46, Avenue Hassan Souktani, Gauthier",
Peter’s,2 fourchettes,Casablanca-Settat,_,Casa-anfa,Angle Rue Mayrbir et Bd Moulay Rachid,0522 94.10.96
Kasai,2 fourchettes,Casablanca-Settat,_,Casa-anfa,"Anfaplace living Resort Résidence 5, Rdc N° R 5.2-3",0522 23.30.25
Little Barton,2 fourchettes,Casablanca-Settat,_,Casa-anfa,"Anfaplace living Resort Résidence 6, Rdc N° R 6.1-2-3",0522 23.30.25
Le Resto,2 fourchettes,Casablanca-Settat,_,Casa-anfa,"138, Angle Bd Zerktouni et Bd Anfa",0522 39 92 95
Bacco E Venere,2 fourchettes,Casablanca-Settat,_,Casa-anfa,"50 Bis, Avenue Hassan Souktani, Gauthier",0522 27 41 73
Tse Yang Dim Sum Club,2 fourchettes,Casablanca-Settat,_,Casa-anfa,"11, Boulevard Moulay Rachid, Anfa",0522 99 64 16
Boccaccio,2 fourchettes,Casablanca-Settat,_,Casa-anfa,"6-8, Rue Ahmed El Mokri, Quartier Racine",0522 39 84 45
Fattuciani,2 fourchettes,Casablanca-Settat,_,Casa-anfa,"23, Immeuble Taya, Lot Les Arène, Rue n°2, Magasin n°6",0522 25 69 78
Le Quatorze,2 fourchettes,Casablanca-Settat,_,Casa-anfa,"14, rue Najib Mahfoud, Casablanca",0522 20 96 52
LE CABESTAN,3 fourchettes,Casablanca-Settat,_,Casa-anfa,"Quartier El Hank, Route de la Corniche",05-22-94-82-58
Anfa Ranch Club,3 fourchettes,Casablanca-Settat,_,Casa-anfa,"Bd Britz, 130 RT2 Ain Diab",0522.79 79 44
Umayya,3 fourchettes,Casablanca-Settat,_,Casa-anfa,Bd. de la Corniche El Hank,0522.94.82.58
Le Petit Rocher,3 fourchettes,Casablanca-Settat,_,Casa-anfa,Route du Phare El Hank,0522.39.57.48
Maison du Gourmet,3 fourchettes,Casablanca-Settat,_,Casa-anfa,"159, R. Taha Houcine",0522.48.48.46
Milasia,3 fourchettes,Casablanca-Settat,_,Casa-anfa,Rue Ahmed Charci Hippodrome,0522.36.36.77
Thaî Garden,3 fourchettes,Casablanca-Settat,_,Casa-anfa,"Avenue de la côte d’Emeraude, Ain Diab",0522.79.89.89
Lily's,3 fourchettes,Casablanca-Settat,_,Casa-anfa,"92, Boulevard De La Corniche, Casablanca",0522 94 82 58
Toumbouctou,2 fourchettes,Casablanca-Settat,_,Casa-anfa,"Sindibad, Boulevard de l'Océan Atlantique",05-22-79-68-62
Katy's,2 fourchettes,Casablanca-Settat,_,Casa-anfa,"73, Rue De Fès",05-22-20-06-65
Le XI,2 fourchettes,Casablanca-Settat,_,Casa-anfa,"11Bis, Boulevard Moulay Rachid",05-22-39-18-74
Médina Art Cafe,1 fourchette,Casablanca-Settat,_,Casa-anfa,"13Bis, Rue de la Douane",05-40-04-93-87
LA CASCADE,2 fourchettes,Casablanca-Settat,_,Casa-anfa,"92, Boulevard De La Corniche, Casablanca",06-14-99-05-95
LAZIO FOOD 'LATIUM',2 fourchettes,Casablanca-Settat,_,Casa-anfa,"32, Rue Franche Comté, Place Chaouia, Casablanca",05-22-22-70-71
SUSHING,1 fourchette,Casablanca-Settat,_,Casa-anfa,"6 Avenue Taddart, Quartier Californie",05-22-28-73-92
THE KITCHEN,2 fourchettes,Casablanca-Settat,_,Casa-anfa,211 Boulevard Yaacoub El Mansour,05-22-99-47-47
FENCE,1 fourchette,Casablanca-Settat,_,Casa-anfa,"124, Rue Nahass Ennahoui, Maarif",05-22-23-28-54
CITY VENEZIA DOREE,1 fourchette,Casablanca-Settat,_,Casa-anfa,"Rue Ahmed Fidouzi, Maarif",05-22-20-97-81
LE BAND,2 fourchettes,Casablanca-Settat,_,Casa-anfa,"10,Rue Assilme,Racine, Casablanca",06-61-24-24-95
Le Matignon,1 fourchette,Casablanca-Settat,_,Fida Mers Sultan,"101, Av. 2 mars,",0522 .83.38.38
Roza Mia,1 fourchette,Casablanca-Settat,_,Fida Mers Sultan,"2,rue abou al ala al Maarri Quartier de hopitaux",0522 86 16 63
Palmeraie Country Club,3 fourchettes,Casablanca-Settat,Nouacer,Bouskoura,"Californie Golf Resort, Ville Verte, Bouskoura",06-14-05-33-77
L'ESCALE,1 fourchette,Casablanca-Settat,Nouacer,Dar bouazza,"R.P 3012,Tamaris, Dar Bouazza",06-10-46-56-73
LOS COMPOS,3 fourchettes,Casablanca-Settat,Nouacer,Bouskoura,"Ville verte, Bouskoura",06-87-81-22-99
REQUIN BLEU,2 fourchettes,Casablanca-Settat,EL JADIDA,MY ABDELLAH,"Centre balnéaire, Sidi Bouzid",05 23-34-85-41
ALLIGATORE,2 fourchettes,Casablanca-Settat,EL JADIDA,MY ABDELLAH,"Centre balnéaire, Sidi Bouzid",05 23-34-82-03
RUSSIBIS,1 fourchette,Casablanca-Settat,EL JADIDA,MY ABDELLAH,"5eme tranche,Sidi Bouzid",06 61 15 89 01
SEAMAN'S CLUB,1 fourchette,Casablanca-Settat,EL JADIDA,MY ABDELLAH,Port Jorf Lasfar,05 23 34 50 28
BLUE HEAVEN,1 fourchette,Casablanca-Settat,EL JADIDA,MY ABDELLAH,"5ème tranche Lot n° 171, Sidi Bouzid",06 61 52 27 59
Restaurant Coréen,1 fourchette,Casablanca-Settat,EL JADIDA,MY ABDELLAH,"Centre balnéaire, Sidi Bouzid",06 70 80 51 60/06 18 62 17 41
Restaurant Carpe diem,3 fourchettes,Casablanca-Settat,EL JADIDA,CHTOUKA,"Douar Sidi Bounaime Commune Rurale Chtouka, Province d’El Jadida",06.61.04.48.55/06.61.07.64.80
ALI BABA,2 fourchettes,Casablanca-Settat,EL JADIDA,EL JADIDA,Route de casa,05 23-34-16-22
LE PRIVÉ,1 fourchette,Casablanca-Settat,EL JADIDA,EL JADIDA,"41, Avenue des FAR",05 23 37 36 65/06 65 03 52 58
PUCCINI,2 fourchettes,Casablanca-Settat,EL JADIDA,EL JADIDA,"70, Av Nabeul Corniche",0523 34 40 29/06 61 43 46 14
"NEW TAZOTA (Ex """"TAZOTA"""")",1 fourchette,Casablanca-Settat,EL JADIDA,EL JADIDA,Route de casa,05 23-35-53-86
LE TIT,1 fourchette,Casablanca-Settat,EL JADIDA,EL JADIDA,Av Med VI,05 23-34-39-08
CHALET DU PLATEAU,1 fourchette,Casablanca-Settat,EL JADIDA,EL JADIDA,Bd Chouaîb Doukkali,05 23-34-16-18
EZZAHWA,1 fourchette,Casablanca-Settat,EL JADIDA,EL JADIDA,Av Hassan II,06 65-10-41-49
MARRAKECH,1 fourchette,Casablanca-Settat,EL JADIDA,EL JADIDA,Av Nations- Unies,05 23-34-40-21
BELLE VUE,1 fourchette,Casablanca-Settat,EL JADIDA,EL JADIDA,"103, Bd Med VI",05 23-35-25-66
CAP BLANC,1 fourchette,Casablanca-Settat,EL JADIDA,HAOUZIA,Commnune Rurale Haouzia,06 69 88 78 17
LA PERLE,1 fourchette,Casablanca-Settat,EL JADIDA,HAOUZIA,"Centre balnéaire, Haouzia",05 23-34-79-05
L'INITIALE,2 fourchettes,Casablanca-Settat,SIDI BENNOUR,OUALIDIA,"Centre balnéaire, Oualidia",05 23-36-62-46
OSTREA II,2 fourchettes,Casablanca-Settat,SIDI BENNOUR,OUALIDIA,"Centre balnéaire, Oualidia",05 23-36-63-24
LES ROCHES,1 fourchette,Casablanca-Settat,SIDI BENNOUR,OUALIDIA,"Centre balnéaire, Oualidia",06 64-72-61-79
KALYPSÔ,1 fourchette,Casablanca-Settat,SIDI BENNOUR,OUALIDIA,"Centre touristique, Oualidia",05 23-36-60-91
"LE COMPTOIR DE LA LAGUNE (ex """"RASCASSE"""")",1 fourchette,Casablanca-Settat,SIDI BENNOUR,OUALIDIA,"Centre touristique, Oualidia",05 23 36 60 42/06 63011556
Les Dunes,2 fourchettes,Darâa-Tafilalet,ERRACHIDIA,Erfoud,Bd My Ismail Prés de station Ziz Arfoud,06 62 08 09 25
CHEZ Jordi et Naima,1 fourchette,Darâa-Tafilalet,ERRACHIDIA,Merzouga,Ksar Merzouga,06 61 99 34 22
LE CHRYSALIS,2 fourchettes,Marrakech-Safi,Essaouira,Essaouira,Compexe Bin Al Aswar,05 24 47 26 63
LES TROIS PALMIERS,1 fourchette,Marrakech-Safi,Essaouira,Essaouira,9/57 place du 11 janvier,05 24 47 42 40
LOUBOU'S,1 fourchette,Marrakech-Safi,Essaouira,Essaouira,Complexe Bin Al Aswar,05 24 78 48 72
BEACH & FRIENDS,1 fourchette,Marrakech-Safi,Essaouira,Essaouira,AV Mohammed V,05 24 47 45 58
EL MENZEH,1 fourchette,Marrakech-Safi,Essaouira,Essaouira,"3, AV Oqba ibn nafia",05 24 47 53 08
TAROS,1 fourchette,Marrakech-Safi,Essaouira,Essaouira,Place My Hassan,05 24 47 64 07
PAPILLON EL FARACHA,1 fourchette,Marrakech-Safi,Essaouira,Essaouira,"24, RUE Irak",05 24 48 45 20
LE CHALET DE LA PLAGE,1 fourchette,Marrakech-Safi,Essaouira,Essaouira,AV Mohammed V,05 24 47 59 72
LA LICORNE,1 fourchette,Marrakech-Safi,Essaouira,Essaouira,"26, rue scala",05 24 47 36 26
LE FANATIC,1 fourchette,Marrakech-Safi,Essaouira,Essaouira,AV Mohammed V,05 24 47 50 08
CARAVANE CAFE,1 fourchette,Marrakech-Safi,Essaouira,Essaouira,2 bis Rue Cadi Ayyad,05 24 78 31 11
LA TABLE MADADA,1 fourchette,Marrakech-Safi,Essaouira,Essaouira,5-7 rue youssef El Fassi,05 24 47 21 06
OCEAN VAGABOND,1 fourchette,Marrakech-Safi,Essaouira,Essaouira,BD Mohammed V,06 61 16 44 12
SIROCCO,1 fourchette,Marrakech-Safi,Essaouira,Essaouira,"15, rue Ibn Rochd",05 24 47 23 96
GUSTO ITALIA,1 fourchette,Marrakech-Safi,Essaouira,Essaouira,RUE CHARIF EL IDRISSI,05 24 47 63 93
LA COUPOLE,1 fourchette,Marrakech-Safi,Essaouira,Essaouira,50 BD Mohammed V,05 24 47 41 81
MADINAT EZZAHRA,1 fourchette,Marrakech-Safi,Essaouira,Essaouira,"60, Bd Mohammed V",06 61 19 33 60
UMIA,1 fourchette,Marrakech-Safi,Essaouira,Essaouira,"22, Rue Sqala",05 24 78 33 95
SAM AND SON,1 fourchette,Marrakech-Safi,Essaouira,Essaouira,Complexe Bin Al Aswar,05 24 47 65 13
LES DUNES,1 fourchette,Marrakech-Safi,Essaouira,Essaouira,"46, Bd Mohammed V",05 24 47 41 81
LA CLE DE VOUTE,1 fourchette,Marrakech-Safi,Essaouira,Essaouira,Rue Laalouj,06 58 83 64 96
LE RAMSESS,1 fourchette,Marrakech-Safi,Essaouira,Essaouira,"18, Rue Ibn Rochd",05 24 47 21 39
D'ORIENT ET D'AILLEURS,1 fourchette,Marrakech-Safi,Essaouira,Essaouira,Rue Touahen,06 15 28 71 46
LES ALIZES MOGADOR,1 fourchette,Marrakech-Safi,Essaouira,Essaouira,Rue Ibn Rochd,05 24 47 68 19
LA MOUETTE ET LES DROMADAIRES,1 fourchette,Marrakech-Safi,Essaouira,Sidi Kaouki,Forêt Dûnes Sud - Sidi Kaouki,06 78 44 92 12
COLLIER DE LA COLOMBE,2 fourchettes,Fès-Meknès,Meknès,MECHOUER STINIA,57 RUE DRIBA,0535555041
CORNETTE PALACE,2 fourchettes,Fès-Meknès,Meknès,MEKNES,20 PLACE ABDELKRIM AL-KHATIB V.N CORNETTE,0535526014
PALAIS TERRAB,2 fourchettes,Fès-Meknès,Meknès,MEKNES,18 BOULEVARD ZERKTOUNI V.N,0535526100
RELAIS DE MEKNES,2 fourchettes,Fès-Meknès,Meknès,MEKNES,46 RUE OQBA IBN NAFII V.N,0535515488 / 89
BELLE VUE,1 fourchette,Fès-Meknès,Meknès,MEKNES,VILLA TORIAQ QUARTIER BELLE VUE,0535520826
BLACK HORSE,1 fourchette,Fès-Meknès,Meknès,MEKNES,8&9- RUE ABOU ALI BEN RAHAL V.N,0535512692
LA GRILLARDIERE,1 fourchette,Fès-Meknès,Meknès,MEKNES,ANGLE RUE ABDELMOUMEN ET RUE DAKAR V.N,0535512454
LA ROSE ROUGE,1 fourchette,Fès-Meknès,Meknès,MEKNES,BOULEVARD MOHAMMED MEKNASSI IMMEUBLE 7 1ER ETAGE V.N,0535400889
PALAIS ALADIN,1 fourchette,Fès-Meknès,Meknès,OUISLANE,"LOT 16, ROUTE DE FES,",535548584
SALMA,1 fourchette,Fès-Meknès,Meknès,MECHOUER STINIA,2 DERB HAMMAM MOULAY ISMAIL,0535556708
ZITOUNA,1 fourchette,Fès-Meknès,Meknès,MEKNES,44 JAMAA ZITOUNA MEDINA,05 35 53 02 81
NINOTCHKA,1 fourchette,Fès-Meknès,EL HAJEB,IQADDAR,JAABA - SIDI AISSA,06 74 16 95 34
Fashada,2 fourchettes,L'oriental,Berkane,Saidia,NSTS,0666 60 51 16
L’Oriental,2 fourchettes,L'oriental,Berkane,Saidia,NSTS,0661 19 13 67
Le Milliardaire,1 fourchette,L'oriental,Berkane,Saidia,NSTS,0661 63 92 06
Montecristy,1 fourchette,L'oriental,Berkane,Saidia,NSTS,0661 32 39 71
O ‘Prado,1 fourchette,L'oriental,Berkane,Saidia,NSTS,0536 71 10 44
Vagues et Dunes,1 fourchette,L'oriental,Berkane,Saidia,NSTS,0658 97 36 51
Puerto Marina,1 fourchette,L'oriental,Berkane,Saidia,NSTS,0661 19 13 67
Twargue,1 fourchette,L'oriental,Berkane,Saidia,NSTS,0536 63 00 00
Marina Bodega,1 fourchette,L'oriental,Berkane,Saidia,NSTS,0661 49 75 21
Good Fellas,1 fourchette,L'oriental,Berkane,Saidia,NSTS,0615 52 83 89
Cézario,1 fourchette,L'oriental,Berkane,Saidia,NSTS,0676 31 28 87
Dahlia,1 fourchette,L'oriental,Berkane,Saidia,NSTS,0661 63 92 06
Bollywood,2 fourchettes,L'oriental,Berkane,Saidia,NSTS,0666 60 51 16
Sept Seven,1 fourchette,L'oriental,Berkane,oujda,NSTS,0661 32 39 71
Marbella,2 fourchettes,L'oriental,oujda,oujda,Rue al Moutamid ibn abad,0536 68 75 01
Dauphin,1 fourchette,L'oriental,oujda,oujda,"38,rue de Berkane",0661 14 76 42/0536 68 61 45
De France,1 fourchette,L'oriental,oujda,oujda,Bd Mohamed V,0536 68 59 87
Langouste,1 fourchette,L'oriental,oujda,oujda,"13,Rue d’Alger",0536 70 20 50
Venise,1 fourchette,L'oriental,oujda,oujda,"245,Bd Mohamed V",0536 69 69 39
Point VIP,1 fourchette,L'oriental,oujda,oujda,"8, rue Oum Al Banine",0619 11 55 36
Comme Chez Soi,1 fourchette,L'oriental,oujda,oujda,Rue Sijilmassa,0536 68 60 79
LE REFUGE,1 fourchette,Marrakech-Safi,SAFI,"CU,SAFI",SIDIBOUZID SAFI,06-61585402
CHEZ GEGENE,2 fourchettes,Marrakech-Safi,SAFI,"CU,SAFI",Rue la Marne Safi,05-24463369
LA TRATORIA,2 fourchettes,Marrakech-Safi,SAFI,"CU,SAFI",Route Sidibouzid Safi,05-24620959
BORJ NADOR,1 fourchette,Marrakech-Safi,SAFI,"CU,SAFI",Route Oualidia-Safi,06-71523394
LE BATEAU,2 fourchettes,Marrakech-Safi,SAFI,"CU,SAFI",Route Sidibouzid Safi,06-61177153
TIR AU PIGEON,1 fourchette,Marrakech-Safi,SAFI,"CU,SAFI",Route de Marrakech. SAFI,06-61188826
RANCH BLEU,2 fourchettes,Marrakech-Safi,SAFI,CR. LAMAACHATE,SOUIRIA LAKDIMA,06-61262382
Village Go Kart,2 fourchettes,Casablanca-Settat,Benslimane,Al Mansouria,Al Mansouria ; Km 2 ; Route de Benslimane,05 23 30 12 33/34 / Fax 05 23 30 12 35
Eden Corsaire,2 fourchettes,Casablanca-Settat,Benslimane,Cherrât,Complexe T. Eden Island ; C. Cherrât,05 22 94 82 19/22 / Fax 05 22 94 82 39
Aux Grand Délices,1 fourchette,Casablanca-Settat,Benslimane,Bouznika,Municipalité de Bouznika ; plage de Bouznika,05 22 27 93 53
Ryade le Vigneron,1 fourchette,Casablanca-Settat,Benslimane,Benslimane,"""Fath 241920 ; Benslimane""",05 23 29 84 66 / Fax 05 23 29 03 96
Bahia Golf Beach,3 fourchettes,Casablanca-Settat,Benslimane,Al Mansouria,Route Côtière ; km 44 ; Al Mansouria,05 22 42 98 00 / Fax 05 22 26 11 77
Ange de Mer,1 fourchette,Casablanca-Settat,Benslimane,Bouznika,Municipalité de Bouznika ; plage de Bouznika,06 42 27 44 83 / Fax 05 23 33 59 03
Romero,1 fourchette,Tanger-Tétouan-Al Hoceima,Tanger-Assilah,TANGER,TANGER,
London Pub,1 fourchette,Tanger-Tétouan-Al Hoceima,Tanger-Assilah,TANGER,TANGER,
Diblu,1 fourchette,Tanger-Tétouan-Al Hoceima,Tanger-Assilah,TANGER,TANGER,
Casa De Espagna Chez Casa Andreu,1 fourchette,Tanger-Tétouan-Al Hoceima,Tanger-Assilah,TANGER,"N°11, rue jabja Watania Tanger",539939004
Morocco Club,1 fourchette,Tanger-Tétouan-Al Hoceima,Tanger-Assilah,TANGER,N° 1 rue Kqhla Kasbah Tanger,539948139
Juana De Arco,1 fourchette,Tanger-Tétouan-Al Hoceima,Tanger-Assilah,TANGER,N°8 RUE ANTAKI /TANGER,539942086
El Dorado,1 fourchette,Tanger-Tétouan-Al Hoceima,Tanger-Assilah,TANGER,N°21 RUE ALLAL BEN ABDELLAH /TANGER,539943353
Otori Sushi,1 fourchette,Tanger-Tétouan-Al Hoceima,Tanger-Assilah,TANGER,N°41 AV DE LA RESISTANCE / TANGER,539325533
L'Océan,1 fourchette,Tanger-Tétouan-Al Hoceima,Tanger-Assilah,TANGER,PLAGE SIDI KACEM / TANGER,539338137
017,1 fourchette,Tanger-Tétouan-Al Hoceima,Tanger-Assilah,TANGER,N°17 RUE DE FES / TANGER,661508071
Miami,1 fourchette,Tanger-Tétouan-Al Hoceima,Tanger-Assilah,TANGER,ZONE GHANDOURI TANGER,539322463
Cap Spartel,1 fourchette,Tanger-Tétouan-Al Hoceima,Tanger-Assilah,TANGER,CAP SPARTEL / TANGER,539933722
La Fuga,1 fourchette,Tanger-Tétouan-Al Hoceima,Tanger-Assilah,TANGER,N°7 ET 8 RUE CASABLANCA/ TANGER,539331066
Mamonia Palace,1 fourchette,Tanger-Tétouan-Al Hoceima,Tanger-Assilah,TANGER,N°6 RUE ESEMARINN / TANGER,539935099
Chellah grill chez Ana et Paolo,1 fourchette,Tanger-Tétouan-Al Hoceima,Tanger-Assilah,TANGER,RUE DE LA FOYETTE 77 AV PRINCE HERITIER,539944617
La Cita,1 fourchette,Tanger-Tétouan-Al Hoceima,Tanger-Assilah,TANGER,N°1 RUE IMAM EL GHAZALI / TANGER,539341087
La Pagode,1 fourchette,Tanger-Tétouan-Al Hoceima,Tanger-Assilah,TANGER,N°3 RUE EL BOSSAIRI / TANGER,539938086
Le Cœur de Tanger,1 fourchette,Tanger-Tétouan-Al Hoceima,Tanger-Assilah,TANGER,N°1RUE ANWAL / TANGER,539948450
Le Pecheur de Detroit,1 fourchette,Tanger-Tétouan-Al Hoceima,Tanger-Assilah,TANGER,RUE AHMED CHAOUKI/ TANGER,539373810
Ramses,1 fourchette,Tanger-Tétouan-Al Hoceima,Tanger-Assilah,TANGER,COMPLEXE PRINTEMPS / TANGER,539942384
Number One,1 fourchette,Tanger-Tétouan-Al Hoceima,Tanger-Assilah,TANGER,"N° 1 BD, MOHAMED V / TANGER",539941674
Valencia,1 fourchette,Tanger-Tétouan-Al Hoceima,Tanger-Assilah,TANGER,AV YOUSUF BEN TACHFIN / TANGER,539945146
Pesca del Dia,1 fourchette,Tanger-Tétouan-Al Hoceima,Tanger-Assilah,TANGER,N°7 RUE JORDANIE / TANGER,661143519
Le Marquiz,1 fourchette,Tanger-Tétouan-Al Hoceima,Tanger-Assilah,TANGER,N°18 RUE BOUHTURI/ TANGER,661377334
Tom & Yam,2 fourchettes,Tanger-Tétouan-Al Hoceima,Tanger-Assilah,TANGER,N°5 AV YUSOUFIA/ TANGER,539320897
Luigi,2 fourchettes,Tanger-Tétouan-Al Hoceima,Tanger-Assilah,TANGER,PLACE DE KOWEIT / TANGER,539379006
Hamadi,2 fourchettes,Tanger-Tétouan-Al Hoceima,Tanger-Assilah,TANGER,N° 2 RUE DE LA KASBAH / TANGER,539934514
Chellah Beach,2 fourchettes,Tanger-Tétouan-Al Hoceima,Tanger-Assilah,TANGER,AV MOHAMED VI / TANGER,539325068
EL PESCADOR,2 fourchettes,Tanger-Tétouan-Al Hoceima,Tanger-Assilah,TANGER,N°5 RUE ALLAL BEN ABDELLAH / TANGER,539945595
Casa d'Italia,2 fourchettes,Tanger-Tétouan-Al Hoceima,Tanger-Assilah,TANGER,PALAIS DES INSTITUTIONS ITALIENS PALAIS MOULAY HAFID,539936348
San Remo,1 fourchette,Tanger-Tétouan-Al Hoceima,Tanger-Assilah,TANGER,N°15 RUE AHMED CHAOUKI / TANGER,539948454
Table du Détroit,1 fourchette,Tanger-Tétouan-Al Hoceima,Tanger-Assilah,TANGER,LOT 312 ZONE INDUSTRIELLE GZENNAYA / TANGER,668847206
L'IBIS,1 fourchette,Tanger-Tétouan-Al Hoceima,Tanger-Assilah,TANGER,N6 RUE KHALID IBN WALID / TANGER,539932468
Saida Arte Contemporaneo Tetuan,1 fourchette,Tanger-Tétouan-Al Hoceima,Tétouan,Tétouan,"Bab Saida, Derb El Attar, Tétouan",0539716565
Méridiana,2 fourchettes,Tanger-Tétouan-Al Hoceima,M'diq-Fnideq,Mdiq,Croissement route Cabo Negro-Mdiq,0539975114
Al Arz,2 fourchettes,Tanger-Tétouan-Al Hoceima,M'diq-Fnideq,Martil,"Complexe La cassia, route Martil-Cabo Negro",0539978585
La Costa,1 fourchette,Tanger-Tétouan-Al Hoceima,M'diq-Fnideq,Fnideq,Ville de Fnideq,0539677000
La Terraza,1 fourchette,Tanger-Tétouan-Al Hoceima,M'diq-Fnideq,Martil,"Complexe La Cassia, route de Martil Cabo Negro",0618515153
Cocodrillo,1 fourchette,Tanger-Tétouan-Al Hoceima,M'diq-Fnideq,Mdiq,Centre de M’diq,0666432998
Olas,1 fourchette,Tanger-Tétouan-Al Hoceima,M'diq-Fnideq,Mdiq,Centre de M’diq,0539663344
La Perle du Nord,1 fourchette,Tanger-Tétouan-Al Hoceima,M'diq-Fnideq,Mdiq,"Port de Marina Smir, Mdiq",0539666667
Pueblo,1 fourchette,Tanger-Tétouan-Al Hoceima,M'diq-Fnideq,Mdiq,"Port de Kabila, Mdiq",0762811103
Yachting Club,1 fourchette,Tanger-Tétouan-Al Hoceima,M'diq-Fnideq,Mdiq,Port de M’diq,0539975659
Oum Errabii,1 fourchette,Tanger-Tétouan-Al Hoceima,Chefchaouen,Chefchaouen,Av. Hassan II- Chefchaouen,0661204865
Al Khozama,1 fourchette,Tanger-Tétouan-Al Hoceima,Larache,Larache,"114, av. Mohamed V, BP : 62- Larache",0539914454
Loukkous,1 fourchette,Tanger-Tétouan-Al Hoceima,Larache,Larache,Entrée du port de Larache,0539914640
Phoenix,1 fourchette,Darâa-Tafilalet,Ouarzazate,CT OUARZAZATE,Rue de l’o.n.e.p Ouarazazate,0524.88.83.13
L’Etoile du Sud,2 fourchettes,Darâa-Tafilalet,Ouarzazate,CT OUARZAZATE,"Av, de la Victoire Ouarazazate",0524.88.30.73
Séville,2 fourchettes,Darâa-Tafilalet,Ouarzazate,CT OUARZAZATE,Hay Tamasint Ouarzazate,0524.88.67.21
Mogador,2 fourchettes,Darâa-Tafilalet,Ouarzazate,CT OUARZAZATE,"18 bis,Av, My Rachid Ouarzazate",0524.89.01.83
3 THES,1 fourchette,Darâa-Tafilalet,Ouarzazate,CT OUARZAZATE,"Av, My Rachid Ouarzazate",0524.88.63.63
Le Monde des Plats,1 fourchette,Darâa-Tafilalet,Ouarzazate,CT OUARZAZATE,"Av, My Rachid Ouarzazate",0524.88.79.32
Oued Tifoultout,1 fourchette,Darâa-Tafilalet,Ouarzazate,CT TARMIGTE,Village Tifoultout Ouarzazate,0524.88.38.82
Isfoula,2 fourchettes,Darâa-Tafilalet,Ouarzazate,CT AIT ZINEB,C.R Ait Zineb Ouarzazate,0524.88.59.55
Le Relais de Saint Exupery,1 fourchette,Darâa-Tafilalet,Ouarzazate,CT OUARZAZATE,"Av, My Abdellah Hay El Kods Ouarzazate",0524.88.77.79
Jardins des Aromes,2 fourchettes,Darâa-Tafilalet,Ouarzazate,CT OUARZAZATE,69 Av. Mohamed V Ouarzazate,0524.88.88.02
Chez dimitri,1 fourchette,Darâa-Tafilalet,Ouarzazate,CT OUARZAZATE,22 Av. Mohamed V Ouarzazate,0524.88.73.46
Accord Majeur,1 fourchette,Darâa-Tafilalet,Ouarzazate,CT OUARZAZATE,N°10Av.Mansour Eddehbi Ouarzazate,0524.88.24.73
Chez Nabil,1 fourchette,Darâa-Tafilalet,Ouarzazate,CT OUARZAZATE,"Av, My Rachid Ouarzazate",0524.88.45.45
Oasis d’Or,2 fourchettes,Darâa-Tafilalet,Ouarzazate,CT AIT ZINEB,CR Ait Zineb Ouarzazate,0524.88.62.90
Restaurant BOUGAFER,2 fourchettes,Darâa-Tafilalet,Ouarzazate,CT OUARZAZATE,Avenue My . Rachid Ouarzazate,0661.47.22.34
Kasbah des Sables,2 fourchettes,Darâa-Tafilalet,Ouarzazate,CT OUARZAZATE,BP631N°195 Hay Ait kdif Ouarzazate,0524.88.54.28
Douyria El Janoub,1 fourchette,Darâa-Tafilalet,Ouarzazate,CT OUARZAZATE,"N°27 Taourirt,Avenue Mohamed V Ouarzazate",0524.88.52.88/0677.78.51.04
Ksar Lina,1 fourchette,Darâa-Tafilalet,Ouarzazate,CT OUARZAZATE,"N°16, Avenue Mohamed V Taourirt, B.P:444 ouarzazate",0662.200034
Galas,2 fourchettes,Darâa-Tafilalet,Ouarzazate,CT OUARZAZATE,Avenue Mohamed V Ouarzazate,0524.88.44.45
La Halte,1 fourchette,Darâa-Tafilalet,Ouarzazate,CT OUARZAZATE,Place El Mouahidine Ouarzazate,0524.89.03.28
Coté Sud,2 fourchettes,Darâa-Tafilalet,Ouarzazate,CT TARMIGTE,Bp 710 Tifoultoute Ouarzazate,0661.39.86.90
HABOUS,2 fourchettes,Darâa-Tafilalet,Ouarzazate,CT OUARZAZATE,Place El Mouahidine N°5 Ouarzazate,05.24.88.26.99 / 68.40
Chez Michelle,2 fourchettes,Darâa-Tafilalet,Tinghir,CT TINGHIR,"Ait Ourjdal, sur la route des gorges, Tinghir",0524.83.51.51
Les 3O,1 fourchette,Guelmim-Oued Noun,SIDI IFNI,CR MIRLEFT,RUE HAMMAN NAJAH CR MIRLEFT SIDI IFNI,661959686
L'HACIENDA,2 fourchettes,Dakhla-Oued Eddahab,Oued Eddahab,Dakhla,Foum Labouoir- Dakhla,06 61 24 58 44
VILLA DAKHLA,2 fourchettes,Dakhla-Oued Eddahab,Oued Eddahab,Dakhla,Boulevard Med VI - Dakhla,06 48 31 58 18
CASA LOUIS,2 fourchettes,Dakhla-Oued Eddahab,Oued Eddahab,Dakhla,Boulevard Med VI - Dakhla,06 61 78 99 55
« LE PUZZLE »,2 fourchettes,Rabat-Salé-Kénitra,Rabat,Rabat,"79, Avenue Ibn Sina - Agdal",037.67.00.30
« LE ZIRYAB »,2 fourchettes,Rabat-Salé-Kénitra,Rabat,Rabat,"Rue des Consuls 10, Impasse Ennajar - Médina",037.73.36.36
« PAUL »,2 fourchettes,Rabat-Salé-Kénitra,Rabat,Rabat,"82, Av. des Nations Unies",037.67.20.00/037.667.24.00
"« PALAIS EL MENZEH""""",2 fourchettes,Rabat-Salé-Kénitra,Rabat,Rabat,"40, Av. Mohammed Bel Hassan El Ouazani-Akrach",037 65 80 34
« LE GOELAND »,2 fourchettes,Rabat-Salé-Kénitra,Rabat,Rabat,"9, Rue Moulay Ali Chérif",037.76.88.85
« LA MAMMA »,2 fourchettes,Rabat-Salé-Kénitra,Rabat,Rabat,"6, Rue Tanta",037.70.73.29/037.70.23.00/037 72 13 19
HAVANA,2 fourchettes,Rabat-Salé-Kénitra,Rabat,Rabat,Avenue Oqba - Agdal,071 54 59 18
« MATSURI »,2 fourchettes,Rabat-Salé-Kénitra,Rabat,Rabat,"155, Avenue J.Kennedy, Route des Zaers - Souissi",037.75.75.72
CASA JOSE (Ex: LE GRAND COMPTOIR),2 fourchettes,Rabat-Salé-Kénitra,Rabat,Rabat,"279, Av. Mohammed V",037 20 15 14
« MARZINE »,2 fourchettes,Rabat-Salé-Kénitra,Rabat,Rabat,"N°237, Hay El Menzeh, Route côtière – C.Y.M.",061 44 40 70
“ L’ATIPICO “,2 fourchettes,Rabat-Salé-Kénitra,Rabat,Rabat,"71, Ave Mohammed VI-Souissi",037 63 49 53
LA CUCHARA,2 fourchettes,Rabat-Salé-Kénitra,Rabat,Rabat,"Avenue Ennakhil, Résidence Hasna, Magasin n° 15, Hay Ryad",0537-563555
LE GEORGES,2 fourchettes,Rabat-Salé-Kénitra,Rabat,Rabat,"74, Rue Oued Ziz, Agdal, Rabat (10.000)",0661-15-81-11
DA BRUNO,2 fourchettes,Rabat-Salé-Kénitra,Rabat,Rabat,"Centre Commercial Prestige, Av. Med VI et Rifai, Souissi",0537-659636/06555560777
« AL YACOUT »,1 fourchette,Rabat-Salé-Kénitra,Rabat,Rabat,"4, Rue Tindouf - Hassan",037.26.28.61
« BORJ EDDAR »,1 fourchette,Rabat-Salé-Kénitra,Rabat,Rabat,Plage de Rabat,037.70.15.00
« LA PLAGE »,1 fourchette,Rabat-Salé-Kénitra,Rabat,Rabat,Plage des Oudayas,037.20.29.28/29
« LES DEUX PALAIS »,1 fourchette,Rabat-Salé-Kénitra,Rabat,Rabat,"14, Rue de Ouarzazate - Hassan",037 66 02 66/037 66 05 66
« PICOLO’S »,1 fourchette,Rabat-Salé-Kénitra,Rabat,Rabat,"149, Av. John Kennedy - Route des Zaers-Souissi",037.63.69.69
“LE CRYPTAN”,1 fourchette,Rabat-Salé-Kénitra,Rabat,Rabat,"N°6, Av. Imam Malik, centre Commercial Ambassadeur – Souissi",037 65 20 00
«L’ENTRECOTE »,1 fourchette,Rabat-Salé-Kénitra,Rabat,Rabat,"74, Avenue Fal Ould Oumeir – Agdal",037.67.11.08
« EL BARIO LATINO »,1 fourchette,Rabat-Salé-Kénitra,Rabat,Rabat,"61, Rue Oued Sebou-Agdal",064.90.09.03/037 68 33 50
« DINARJAT »,1 fourchette,Rabat-Salé-Kénitra,Rabat,Rabat,"6, Rue Belgnaoui,Av. Laalou - Médina",037.72.23.42/037.70.42.39
« LE PARISIEN »,1 fourchette,Rabat-Salé-Kénitra,Rabat,Rabat,"46, Rue Patrice Lumumba",037.76.50.50/061 15 48 39
« LA BAMBA »,1 fourchette,Rabat-Salé-Kénitra,Rabat,Rabat,"3, Rue Tanta",037.70.98.39
« LA PAGODE »,1 fourchette,Rabat-Salé-Kénitra,Rabat,Rabat,"13, Rue Baghdad",037.70.93.81
LE CHILL (Ex : CLASS’TEL ),1 fourchette,Rabat-Salé-Kénitra,Rabat,Rabat,"1, Rue Tensift,Av. Oqba – Agdal",037.68.00.07
« TAJINE WA TANGIA »,1 fourchette,Rabat-Salé-Kénitra,Rabat,Rabat,"9, Rue Baghdad (Près de la gare Rabat-Ville)",037.72.97.97
« LA MENORA »,1 fourchette,Rabat-Salé-Kénitra,Rabat,Rabat,"4, Rue Er-Ryad - Hassan",037.26.01.03
« LA SYMPHONIE DE LA MER »,1 fourchette,Rabat-Salé-Kénitra,Rabat,Rabat,"4, Rue Zerhouni (Ex-Rue Henri Dunant)",037.20.10.33
« L’EMPREINTE DU TEMPS »,1 fourchette,Rabat-Salé-Kénitra,Rabat,Rabat,"Villa 38, Avenue Ibn Sina – Agdal",037.67.08.01
« LE RESERVOIR »,1 fourchette,Rabat-Salé-Kénitra,Rabat,Rabat,"Galerie Prestige, Route des Zaers- Souissi",061.23.44.44/037 75 09 09/061 37 43 36
« RISTORANTE FNZI »,1 fourchette,Rabat-Salé-Kénitra,Rabat,Rabat,"9, Rue Riad – Hassan",037.72.88.88
« GUSTO D’EL SOL »,1 fourchette,Rabat-Salé-Kénitra,Rabat,Rabat,"63, Patrice Lumumba",064.72.10.60/064 72 10 61
« L .P »,1 fourchette,Rabat-Salé-Kénitra,Rabat,Rabat,"10, Rue Lala Soukaina-Agdal",037.67.26.79/037.67.26.83
« CHEZ KNOUZ »,1 fourchette,Rabat-Salé-Kénitra,Rabat,Rabat,"76, Avenue Ibn Sina",037.67.25.90
“EL PACIFICO”,1 fourchette,Rabat-Salé-Kénitra,Rabat,Rabat,"46, Av. Patrice Lumumba",078 78 61 99
« VILLA ROMANA »,1 fourchette,Rabat-Salé-Kénitra,Rabat,Rabat,"Rue N’fis, villa n°3 - Agdal",061.40.16.22
« FRERES TUYET »,1 fourchette,Rabat-Salé-Kénitra,Rabat,Rabat,"1, Rue Tensift – Agdal",037.77.06.56
« PIZZERIA REGGIO »,1 fourchette,Rabat-Salé-Kénitra,Rabat,Rabat,"30, Av.Oqba - Agdal",037 77 69 99
“ TY POTES ”,1 fourchette,Rabat-Salé-Kénitra,Rabat,Rabat,"11, Rue Ghafsa – Hassan",037 70 79 65
« RELAIS DE PARIS »,1 fourchette,Rabat-Salé-Kénitra,Rabat,Rabat,"25, Angle Route des Zaers et Rue Ahmed Rifaï - Souissi",037 75 81 61/037 75 85 33
« SOFIA PALACE »,1 fourchette,Rabat-Salé-Kénitra,Rabat,Rabat,"2 , Av. Mehdi Ben Barka –Souissi",037 65 52 52
« LE PRIVILEGE »,1 fourchette,Rabat-Salé-Kénitra,Rabat,Rabat,Rue Oued Ziz - Agdal,060 35 27 28
« L’R DU GOUT »,1 fourchette,Rabat-Salé-Kénitra,Rabat,Rabat,"N°8, Rue My Abdelaziz-Hassane",0637 76 06 10
LA TERRASSA (Ex :OCUBE),1 fourchette,Rabat-Salé-Kénitra,Rabat,Rabat,"25, Av. Ennakhil, Hay Riad",037 71 54 43
« TAPEO »,1 fourchette,Rabat-Salé-Kénitra,Rabat,Rabat,"Mahaj Riad, Magazin 10&12 - Hay Riad",037 75 75 72
« GUSTI E SAPORI »,1 fourchette,Rabat-Salé-Kénitra,Rabat,Rabat,"69, Rue Oued Sbou- Agdal",037 77 69 77
« AS’IAM »,1 fourchette,Rabat-Salé-Kénitra,Rabat,Rabat,"32, Av. Al Araar- Hay Riad",037 56 56 30
YAMAS BISTRO (Ex : LE GRILLARDIN),1 fourchette,Rabat-Salé-Kénitra,Rabat,Rabat,"4, Rue Monastir",037 75 08 91
CHEZ NABILA (Ex : COMME CHEZ NOUS),1 fourchette,Rabat-Salé-Kénitra,Rabat,Rabat,"5, Ave Oqba-Agdal",0 37 68014 60
“LATIUM”,1 fourchette,Rabat-Salé-Kénitra,Rabat,Rabat,"16, Ave Ennakhil -Hay Riad",0 37 71 77 16
“6ème SYMPHONIE”,1 fourchette,Rabat-Salé-Kénitra,Rabat,Rabat,"4, Rue Benghazi- Hassan",0 37 20 02 80
“UP STAIRS”,1 fourchette,Rabat-Salé-Kénitra,Rabat,Rabat,"08, Ave Michlifen - Agdal",0 37 67 41 11
“TOO MUCH”,1 fourchette,Rabat-Salé-Kénitra,Rabat,Rabat,Angle Av. 16 Novembre et Avicenne – Agdal,0 37 67 27 77
ILILI (Ex : LA CORRIDA),1 fourchette,Rabat-Salé-Kénitra,Rabat,Rabat,"32, Av. Oqba - Agdal",037 77 29 87/88
“LE SAXO”,1 fourchette,Rabat-Salé-Kénitra,Rabat,Rabat,"54, Rue Sebou - Agdal",037 68 33 34
“EL GAUCHO”,1 fourchette,Rabat-Salé-Kénitra,Rabat,Rabat,"Hay Riad, Bd Arryad,",037 71 71 30
HANOKI (Ex : MATSURI),1 fourchette,Rabat-Salé-Kénitra,Rabat,Rabat,"Résidence les Camélias, 13-M3-13-M6 -13-M7 Hay Ryad",0537-703708
AU COIN SYMPA (Ex : LE TARBOOSH),1 fourchette,Rabat-Salé-Kénitra,Rabat,Rabat,"Immeuble 34, n°01, Avenue Oqba - Agdal",0537-773624
SOSO (SOTTO SOPRA),1 fourchette,Rabat-Salé-Kénitra,Rabat,Rabat,"10, Rue Al Marj, Hassan, Rabat",05-37-73-15-07/ 06-99-17-46-57
O'GOETHE 2.0,1 fourchette,Rabat-Salé-Kénitra,Rabat,Rabat,"26 Avenue Oqba, Agdal, Rabat",0663-499850 / 0661-157691
NAGA,1 fourchette,Rabat-Salé-Kénitra,Rabat,Rabat,"Avenue Ennakhil, Immeuble B, Lot 10, Porte 02, Hay Ryad, Rabt",0530-109060
IL GIARDINO,1 fourchette,Rabat-Salé-Kénitra,Rabat,Rabat,"02, Bis Avenue Ahmed El Yazidi, Hassan, Rabay",0537-707031
LA BOCA GRANDE (Ex :CHURRASCARIA MARIUS),1 fourchette,Rabat-Salé-Kénitra,Rabat,Rabat,"N° 19, Centre Commercial Les Ambassadeurs",0629-702944/0631-033033
LE GALAPAGOS ZYLOS,1 fourchette,Rabat-Salé-Kénitra,Rabat,Rabat,"Lotissement 25, n°43, Av. Ennakhil, Hay Ryad, Rabat",0537-714890 / 0661-552696
CHEZ XAVIER,1 fourchette,Rabat-Salé-Kénitra,Rabat,Rabat,"Mega Mall, Av Mohamed VI, Rabat",0537-651600 / 0661391711
LA CANTINE DU MARCHE,1 fourchette,Rabat-Salé-Kénitra,Rabat,Rabat,"57, Rue Sebou et Baht, Agdal, Rabat",0663-625550
VERTIGO (Stefano),1 fourchette,Rabat-Salé-Kénitra,Rabat,Rabat,"51, Rue Oued Ziz, Agdal, Rabat",0661-130164
ART PATIO,1 fourchette,Rabat-Salé-Kénitra,Rabat,Rabat,"Centre Commercial Prestiage, Bd Ahmed Rifai, Souissi, Rabat",0661-481489
SA CALETA,1 fourchette,Rabat-Salé-Kénitra,Rabat,Rabat,"Centre Commercial Prestiage, Bd Ahmed Rifai, Souissi, Rabat",0614-406900 / 0537-650064
LE RESTO 3.0,1 fourchette,Rabat-Salé-Kénitra,Rabat,Rabat,"40, Angle Rue Ahfir et Avenue Al Alaouiyine, Hassan, Rabat",0537-303330 / 0613-130652
LE LIMONADIER,1 fourchette,Rabat-Salé-Kénitra,Rabat,Rabat,"16, Rue Oukaimiden, Agdal, Rabat",0537-686900
TIAN AN MEN,1 fourchette,Rabat-Salé-Kénitra,Rabat,Rabat,"12, Rue Bruxelles, Océan, Rabat",0537-205040 / 0661-403054
MARACANA,1 fourchette,Rabat-Salé-Kénitra,Rabat,Rabat,"22, Avenue Ibn Sina, Agdal, Rabat",0537-67-15-71/0707-079046
« LES TROIS PALMIERS »,3 fourchettes,Rabat-Salé-Kénitra,Skhirate,Skhirate,Plage Val D’Or,037 74 92 26
« ROSE MARIE »,2 fourchettes,Rabat-Salé-Kénitra,Skhirate,Skhirate,Plage Al Jaouhara,037.74.92.51/037 74 93 34
« SAN FRANCISCO »,1 fourchette,Rabat-Salé-Kénitra,Témara,Témara,Av. My Abdellah -Sables d’Or,037 62 64 18
"""""CARINò (chillout)",1 fourchette,Rabat-Salé-Kénitra,Témara,Témara,Route côtière Rabat-Casablanca,0537-749952 / 0661-420902
« OASIS MANIA »,1 fourchette,Rabat-Salé-Kénitra,Témara,Témara,"5, Lot.Azzohra,Harhoura - Témara",037 64 07 23
AL MARSA,2 fourchettes,Rabat-Salé-Kénitra,Salé,Salé,Port de plaisance du Bouregreg,05.37.84.58.18
MARCO,2 fourchettes,Rabat-Salé-Kénitra,Salé,Salé,"Batiment 5, Mag 14, Marina de Salé",0670-033636 / 0673-737304
LA PENICHE,1 fourchette,Rabat-Salé-Kénitra,Salé,Salé,Av. Prince Héritier Sidi Mohammed (Rive droitedu Bouregreg),037.78.56.59 /61
DAILY BURGER,1 fourchette,Rabat-Salé-Kénitra,Salé,Salé,"Marina de Salé, Bab Lamrissa, Lot Imm """"B"""", Magasin """"C7""""",0661-400122
LE 580,2 fourchettes,Rabat-Salé-Kénitra,Kénitra,Kénitra,"Rue 35, villa 580, Bir Rami Est, Kénitra 14000",05.37.84.58.18
CHEZ L'ITALIENNE,2 fourchettes,Rabat-Salé-Kénitra,Kénitra,Kénitra,"Rue 35, Villa 342, Bir Rami Est",0670-033636 / 0673-737304
GRILL VAP,1 fourchette,Rabat-Salé-Kénitra,Kénitra,Kénitra,"N°6, Rue Amira Aïcha, Province de Kénitra",037.78.56.59 /61
TITANIC,1 fourchette,Rabat-Salé-Kénitra,Kénitra,Méhdia,"Front de mer, N°1, Mehdia Plage",012 10 91 03/061 29 98 03
CASA ANDALUCIA,1 fourchette,Rabat-Salé-Kénitra,Kénitra,Méhdia,Port de pêche de Mehdia,0661-400122
LUIGI,1 fourchette,Rabat-Salé-Kénitra,Kénitra,Kénitra,"Av. Ahmed Chaouqi, Kénitra",661557551
LE CENTRAL,1 fourchette,Rabat-Salé-Kénitra,Kénitra,Kénitra,"63, Avenue Mohamed Diouri, Kénitra",0661-218964
LE PEITI JEAN,1 fourchette,Rabat-Salé-Kénitra,Sidi Kacem,Sidi Kacem,"N°13, Rue 22, Hay El Jadid, Sidi Kacem",
RinCon Dario,2 fourchettes,Laâyoune-Sakia El Hamra,laayoune,laayoune,RUE KHALID BEN WALID LAAYOUNE,528981678
DAR MOUNIA,LUXE,Marrakech-Safi,Marrakech,Marrakech,RUE KHALIF OUTMAN AV. EL YARMOUK,05.24.43.12.41 05.24.43.66.31
LA ROTONDE,3 fourchettes,Marrakech-Safi,Marrakech,Marrakech,"37,KASBAH DERB MENABHA",05.24.38-15-85
LES JARDINS DES ARTS,3 fourchettes,Marrakech-Safi,Marrakech,Marrakech,ROUTE DE CASA,05.24.44.66.34
VILLA ROSA,3 fourchettes,Marrakech-Safi,Marrakech,Marrakech,"64, AV. HASSAN II",05.24.43-08-32
MILODY STARS,3 fourchettes,Marrakech-Safi,Marrakech,Marrakech,AVENUE ABDELKRIM EL KHATTABI,05 24 44 81 67
LA DORADE DU SUD,3 fourchettes,Marrakech-Safi,Marrakech,Marrakech,"CENTRE KAWKAB, ANGLE AVENUE IMAM CHAFII ET AVENUE MOULAY HASSAN I,HIVERNAGE",05 24 43 27 88
THE RED SUN ( EX CAPRICORN),3 fourchettes,Marrakech-Safi,Marrakech,Marrakech,"LOT MH 24 BIS, ZONE TOURISTIQUE AGDAL",02 50 60 116
ALIZIA,2 fourchettes,Marrakech-Safi,Marrakech,Marrakech,ANGLE RUE CHOUHADA CHAWKI HIVERNAGE,05.24.43.83.60
AL BARAKA,2 fourchettes,Marrakech-Safi,Marrakech,Marrakech,"DERB OUARZZAZI N°1, MEDINA",05.24.44.23.41
DAR HAJ IDDER,2 fourchettes,Marrakech-Safi,Marrakech,Marrakech,"N°1 DERB DABACHI, DERB EL HAJRA",05 24.44.53.75
LE TANGIA ORIENTAL EX DOUIRIA,2 fourchettes,Marrakech-Safi,Marrakech,Marrakech,"14, DERB J’DID HAY SALAM",05 24.40-30-30
LA PICOLLA ITALIA,2 fourchettes,Marrakech-Safi,Marrakech,Marrakech,"36, RUE IBN AICHA GUELIZ",05 24.43-07.04
VILLA TIVOLI,2 fourchettes,Marrakech-Safi,Marrakech,Marrakech,ROUTE DE CASA,05 24.31.35.28
NIPPON FOOD (EX LE CARRE ROUGE),2 fourchettes,Marrakech-Safi,Marrakech,Marrakech,"3, RESIDENCE LES OLIVIERS, AVENUE MOHAMMED VI, HIVERNAGE",05 24 45 72 00
PALAIS ARABE,2 fourchettes,Marrakech-Safi,Marrakech,Marrakech,"2, PLACE JEMAA EL FNA",05 24 38 43 04
DAR MOKI,2 fourchettes,Marrakech-Safi,Marrakech,Marrakech,64 ARSET AOUZAL DAR EL BACHABAB DOUKKALA,05 24 38 77 00
TIME MATISSE EX TOSCA,2 fourchettes,Marrakech-Safi,Marrakech,Marrakech,4 RUE BADR GUELIZ,05 24 43 00 39
DAR SIX TABLE MAROCAINE EX RESTAURANT .DAR 6,2 fourchettes,Marrakech-Safi,Marrakech,Marrakech,AV MOHAMMED VI,05 24 45 88 87
YELLOW SUB (EX LE LOQUOI),2 fourchettes,Marrakech-Safi,Marrakech,Marrakech,"82, BOULEVARD HASSAN II, GUELIZ",05 24 43 94 57
.Z BOMBAY (EX COULEUR POURPRE),2 fourchettes,Marrakech-Safi,Marrakech,Marrakech,"7, RUE IBN ZEIDOUNE, GUELIZ",05 24 43 73 02
LE DKLE EX DE TAPAS,2 fourchettes,Marrakech-Safi,Marrakech,Marrakech,L’ANGLE BOULEVARD MOHAMMED V ET RUE AL HABOUS,05 24 42 09 12
LOGO EX CODE BARRE (EX SUR UNE ARDOISE),2 fourchettes,Marrakech-Safi,Marrakech,Marrakech,RESIDENCE ALI ROUTE DE TARGA CAMP GHOUL,05 24 43 22 04
AZAR,2 fourchettes,Marrakech-Safi,Marrakech,Marrakech,"RESIDENCE MARJANA 1, 2 ET 3 RUE YOUGOSLAVIE",05 24 43 09 20
.TRIO LATINO,2 fourchettes,Marrakech-Safi,Marrakech,Marrakech,"68, ANGLE AV ZERKTOUNI ET TARIK BEN ZIAD",05.24.43.30.70
ELBAHIA,1 fourchette,Marrakech-Safi,Marrakech,Marrakech,RIAD ZITOUN JDID N° 1,05 24.37.86.79
EL BAHJA,1 fourchette,Marrakech-Safi,Marrakech,Marrakech,"41, RUE BANI MARINE",05 24.44-13-51
LA POELE D’OR,1 fourchette,Marrakech-Safi,Marrakech,Marrakech,RUE BEN AHMED,04.43.95.34
LE MARRAKCHI,1 fourchette,Marrakech-Safi,Marrakech,Marrakech,PLACE JAMAI EL FNA RUE DES BANQUES N°52,05 24.44.33.77
LE JARDIN,1 fourchette,Marrakech-Safi,Marrakech,Marrakech,RUE OUM RABIA,05 24.44.82.10
KECHMARA,1 fourchette,Marrakech-Safi,Marrakech,Marrakech,1 BIS ET 3 RUE DE LA LIBERTE,05 24 42 25 32
LA MAISON ARABE EX COIN CACHE,1 fourchette,Marrakech-Safi,Marrakech,Marrakech,DOUAR LAKHILI SIDI YOUSSEF BEN ALI,05 24 45 88 88
ARKECH (EX EXTRABLATT LOUNGE EX AMENTIS),1 fourchette,Marrakech-Safi,Marrakech,Marrakech,ANGLE AVENUE CHOUHADA ET KADISSIYA,05 24-43-48-43
LE BLOKK,1 fourchette,Marrakech-Safi,Marrakech,Marrakech,CIRCUIT DE LA PALMERAIE PROPRIETE AL FARAH,06 74 33 43 34
BUCHER CLUBBER,1 fourchette,Marrakech-Safi,Marrakech,Marrakech,AVENUE HASSANE II,05 24 44 82 69
EL GUENAOUI,1 fourchette,Marrakech-Safi,Marrakech,Marrakech,230 LOT LALLA HAYA HAY HASSANI,05 24 49 31 29
AMINE MOGADOR,1 fourchette,Marrakech-Safi,Marrakech,Marrakech,N° 68 RUE RAHAL BEN AHMED HAY CHETOUI,06 1217 83 42
LA RELANCE,1 fourchette,Marrakech-Safi,Marrakech,Marrakech,ROUTE DE CASABLANCA,05 24 30 30 16
KAROBASE,1 fourchette,Marrakech-Safi,Marrakech,Marrakech,"N°10, IMM MIRAMAS 1, ANGLE RUE CAPITAINE ARRIGUI ET RUE DARAA,",05 24 42 28 08
O’MULLIGAN,1 fourchette,Marrakech-Safi,Marrakech,Marrakech,"L’AVENUE HASSAN II, N° 59, IMMEUBLE VERDOYANT,GUELIZ",0 6 11 27 19 99
HATARI RESTAURANT EX MEZZALUNA,1 fourchette,Marrakech-Safi,Marrakech,Marrakech,"25, CENTRE COMMERCIAL NAKHIL",05 24 45 80 62
CHEZ MADO EX KANYAMA,1 fourchette,Marrakech-Safi,Marrakech,Marrakech,22 RUE MY ALI GUELIZ,-
OSEVEN,1 fourchette,Marrakech-Safi,Marrakech,Marrakech,4RUE BADR GUELIZ,05 24 44 95 99
METRO 80,1 fourchette,Marrakech-Safi,Marrakech,Marrakech,"AVENUE HASSAN II, QUARTIER GARE ONCF",05 24 06 03 84
REST LECHINNEUR,1 fourchette,Marrakech-Safi,Marrakech,Marrakech,AVENUE MY RACHID,05 24 45 88 88 06 50 49 82 30
L’IBZAR,2 fourchettes,Marrakech-Safi,Marrakech,Marrakech,"28, RUE MOULAY ALI GUELIZ -MARRAKECH",05 24 42 04 02
MENZAH DADA,1 fourchette,Marrakech-Safi,Marrakech,Marrakech,MEDINA,05 24 39 16 00
ROLLS CLUB,2 fourchettes,Marrakech-Safi,Marrakech,Marrakech,GUELIZ,0 6 17 13 01 30
FLORE ATLAS,2 fourchettes,Marrakech-Safi,Marrakech,Marrakech,PLACE DE 16 NOVEMBRE,
BERT ‘S,2 fourchettes,Marrakech-Safi,Marrakech,Marrakech,"45 RESIDENCE DES REMPARTS, AVENUE MOHAMED V",05 24 45 70 75
ATLAS GOLF MARRAKECH,2 fourchettes,Marrakech-Safi,Marrakech,Marrakech,ROUTE D’AMIZMIZ,05243-76666
VIRJIN CAFE,1 fourchette,Marrakech-Safi,Marrakech,Marrakech,"CENTRE COMMERCIAL AL MAZAR, ZONE TOURISTIQUE AGUEDAL",05 25 06 03 16
MARKET FISH GRILL,1 fourchette,Marrakech-Safi,Marrakech,Marrakech,"CENTRE COMMERCIAL AL MAZAR, ZONE TOURISTIQUE AGUEDAL",06 61 24 23 78
COFFEE PREMIUM MARRAKECH,1 fourchette,Marrakech-Safi,Marrakech,Marrakech,GUELIZ,
LA BOHEME,1 fourchette,Marrakech-Safi,Marrakech,Marrakech,"2, PLACE JAMAA EL FNA",05 24 42 95 42
AMAIA,1 fourchette,Marrakech-Safi,Marrakech,Marrakech,"84, AVENUE HASSAN II, GUELIZ , 40000 - MARRAKECH",05 24 45 71 81
ARD OAZ TAPAS,1 fourchette,Marrakech-Safi,Marrakech,Marrakech,"24, ANGLE RUE MOULAY ALI ET RUE YOUGOSLAVIE",
LE FOUNDOUK,3 fourchettes,Marrakech-Safi,Marrakech,Marrakech,"55, RUE SOUK EL FASSI, KAAT BENNAHID",0524378190
LIMIRE ART,2 fourchettes,Marrakech-Safi,Marrakech,Marrakech,"33, IMM SIDNY, RUEYOGOUSLAVIE , GUELIZ",
LE CALICE,1 fourchette,Marrakech-Safi,Marrakech,Marrakech,"IMM BEN HAFSSIA, PLACE 16 NOVEMBRE 2011",
MI CASA JOSE (EX:THAI BISTRO),1 fourchette,Marrakech-Safi,Marrakech,Marrakech,N°8 RUE OUED EL MAKHAZEN,
LE STUDIO,1 fourchette,Marrakech-Safi,Marrakech,Marrakech,"87, AVENUE MOULAY RACHID, GUELIZ",
LESALAMA,1 fourchette,Marrakech-Safi,Marrakech,Marrakech,"40, RUE DES BANQUES, KENNARIAT",
ILPONTEPALACE,1 fourchette,Marrakech-Safi,Marrakech,Marrakech,"MAG 1, IM ANDALOUS, N° 60, RUE YOUGOSLAVIE",
L'EDEN LOUNGE EX CARIOCA,1 fourchette,Marrakech-Safi,Marrakech,Marrakech,"N° 120,AV MED EL BAQAL,RESIDENCE M’BARKA,GUÉLIZ,",
ROCK STORE (EX LAYALY ALOUNCE),1 fourchette,Marrakech-Safi,Marrakech,Marrakech,"AV ZERKTOUNI, IM A,MAG 7",
PALAIS DES PALMIERS,1 fourchette,Marrakech-Safi,Marrakech,Marrakech,"CIRCUIT DE LA PALMERAIE, BP 7145,SIDI ABBAD II.",05 24 30 80 75
AFRIC’N CHIC,A vocation touristique,Marrakech-Safi,Marrakech,Marrakech,"IMB EL GUERMAI, RUE OUM RABIA",05244-31424
LOLOUQUOI,A vocation touristique,Marrakech-Safi,Marrakech,Marrakech,"82, AV HASSAN II",05 24 43 94 57
PALMIER CLUB,A vocation touristique,Marrakech-Safi,Marrakech,Marrakech,RUE ALLAL BEN AHMED N°4,05 24 42 25 37
ZIWANA,A vocation touristique,Marrakech-Safi,Marrakech,Marrakech,5 ET 6 BERB AL MAADA LAKSOUR MEDINA,05 24 38 05 00
CHOW CASE CAFE,A vocation touristique,Marrakech-Safi,Marrakech,Marrakech,221 BD ZERKTOUNI,05244-23735
LE TOUGANA,A vocation touristique,Marrakech-Safi,Marrakech,Marrakech,"KM 8,5 ROUTE DE LK'OURIKA",05 24 37 66 66
BEACH GARDEN,A vocation touristique,Marrakech-Safi,Marrakech,Marrakech,N° 7 ROUTE DE L'AEROPORT,05 24 37 29 50
LE ROYAL GOLF,A vocation touristique,Marrakech-Safi,Marrakech,Marrakech,ROUTE DE OUARZAZATE,05 24 40 98 28
OUASIRIA,A vocation touristique,Marrakech-Safi,Marrakech,Marrakech,"KM 4, ROUTE D'AMEZMIZ, CHRIFIA",05 24 38 04 38
SOUKKARA,A vocation touristique,Marrakech-Safi,Marrakech,Marrakech,ANGLE AVENUE MED VI ET ABDELKRIM EL KHATTABI,05 24 43 18 85
LE GUEPARD,A vocation touristique,Marrakech-Safi,Marrakech,Marrakech,"IMMEUBLE AL MORAD, AVENUE MED V",05 24 43 91 48
THE VIP,A vocation touristique,Marrakech-Safi,Marrakech,Marrakech,"PLACE DE LA LIBERTE, AVENUE MED V",05 24 36 07 97
LE POINT DES AMIS,A vocation touristique,Marrakech-Safi,Marrakech,Marrakech,"IMBLE BELLA, AVENUE ABDELKRIM EL KHATTABI",05244-33040
EL PESCADERO,A vocation touristique,Marrakech-Safi,Marrakech,Marrakech,RUE RAHAL BEN AHMED N°16,05 24 43 96 71
CAFE DU LIVRE,A vocation touristique,Marrakech-Safi,Marrakech,Marrakech,RUE TARIQ BEN ZIAD N°44,05 24 44 69 21
PALAIS SOULAIMANE,A vocation touristique,Marrakech-Safi,Marrakech,Marrakech,KAA LMACHRAAA AV. 11 JAZNVIER,05 24 38 37 21
LA KASBAH DE TASSAROUTE,A vocation touristique,Marrakech-Safi,Marrakech,Marrakech,DOUAR BEN RAHMOUNE C.R. OUAHT SIDI BRAHIM,05 24 33 23 50
LA PLAGE ROUGE,A vocation touristique,Marrakech-Safi,Marrakech,Marrakech,KM 10 ROUTE DE L'OURIKA,05243-91176
LES JARDINS DE GUELIZ,A vocation touristique,Marrakech-Safi,Marrakech,Marrakech,L’AVENUE OUED EL MAKHAZINE ET JARDIN HARTI,05 24 42 21 22
LE 6,A vocation touristique,Marrakech-Safi,Marrakech,Marrakech,AVENUE MOHAMED VI,05 24 44 91 59
L'ANNEXE,A vocation touristique,Marrakech-Safi,Marrakech,Marrakech,"SIS N°14, RUE MY ALI CHERIF GUELIZ",05 24 43 40 10
COMPTOIR DARNA,A vocation touristique,Marrakech-Safi,Marrakech,Marrakech,"SIS A L’AVENUE ECHOUHADA, HIVERNAGE",05 24 43 77 02
KEY WEST,A vocation touristique,Marrakech-Safi,Marrakech,Marrakech,LA RESIDENCE BATOUL BOULEVARD MOHAMED V,
16 CAFE,A vocation touristique,Marrakech-Safi,Marrakech,Marrakech,"LA PLACE 16 NOVEMBRE MARRAKECH PLAZA, GUELIZ",05 24 44 91 59
LE SABAL,A vocation touristique,Marrakech-Safi,Marrakech,Marrakech,"AVENUE MOHAMMED V, GUELIZ",05 24 42 24 22
GALI GALOU,A vocation touristique,Marrakech-Safi,Marrakech,Marrakech,"IMMEUBLE NAKHIL, RUE OUM RABIA, GUELIZ",05 24 42 04 05
LE RDV,A vocation touristique,Marrakech-Safi,Marrakech,Marrakech,"N° 38, RUE IBN AL CADI",05 24 29 03 78
MURAILLE D'ASIE,A vocation touristique,Marrakech-Safi,Marrakech,Marrakech,AVENUUE MED V,05 24 42 24 81
SALAM BOMBAY,A vocation touristique,Marrakech-Safi,Marrakech,Marrakech,AVENUE MOHAMMED VI,05 24 43 70 83
WORLD QUEEN,A vocation touristique,Marrakech-Safi,Marrakech,Marrakech,PLAZZA,
AL MIRAAT,3 fourchettes,Marrakech-Safi,Marrakech,Marrakech,"GOLF AL MAADEN, ANNAKHIL",06 60 10 52 57
DJELLABA,2 fourchettes,Marrakech-Safi,Marrakech,Marrakech,"2, RUE ABOUHANIFA, HEVIRNAGE,GUELIZ",
JNANE FAIZA,1 fourchette,Marrakech-Safi,Marrakech,Marrakech,"KM 11, 5, COOPERATIVE ATLAS, TASSULTANT",
DJELLABAR MARRAKECH,2 fourchettes,Marrakech-Safi,Marrakech,Marrakech,"2, RUE IMAM ABOU HOUNAIFA , HIVERNAGE",05 24 42 12 42
KOSYBAR,1 fourchette,Marrakech-Safi,Marrakech,Marrakech,37 PLACE DES FERBLANTIERS HAY SALAM,05 24 38 03 24
LE FESTIVAL EX VILLA BLANCHE,2 fourchettes,Marrakech-Safi,Marrakech,Marrakech,"13, RUE ARRIGUI, CAMP EL GHOUL",05 24 30 29 15
LE KLUB EX LE COIN KOOL,1 fourchette,Marrakech-Safi,Marrakech,Marrakech,"71, RUE MOHAMED EL BAQAL, GUÉLIZ",05 24 423 510
COSTA ESMERALDA,1 fourchette,Marrakech-Safi,Marrakech,Marrakech,"1, IMMEUBLE WASSIM, ANGLE RUE SBOU ET RUE BEN ATYA, GUELIZ",06 42 39 63 47
MAI THAI (EX LE SQUARE),2 fourchettes,Marrakech-Safi,Marrakech,Marrakech,ANGLE AVENUE CHOUHADA ET RUE DE PARIS,05 24 45 73 01
MENZAH DADA,1 fourchette,Marrakech-Safi,Marrakech,Marrakech,"° 2, RUE DE LA RADEEMA, ARSET LAMAACH",05 24 39 16 00
SAADIENS,3 fourchettes,Marrakech-Safi,Marrakech,Marrakech,"105, 106 DERB CHTOUKA KASBAH",05 24 38 33 32
ROLLS CLUB,1 fourchette,Marrakech-Safi,Marrakech,Marrakech,6 ANGLE RUE DARAA ET LIEUTNANT LAMURE,06 61 28 34 32
LE SAMOVAR,1 fourchette,Marrakech-Safi,Marrakech,Marrakech,"N° 143, AVENUE MOHAMED EL BEKAL, GUÉLIZ",06 61 24 94 23
ATLAS GOLF MARRAKECH,2 fourchettes,Marrakech-Safi,Marrakech,Marrakech,"KM 4, ROUTE D’AMEZMIZ, MARRAKECH",05 24 3-7 666
COFFEE PREMIUM MARRAKECH,1 fourchette,Marrakech-Safi,Marrakech,Marrakech,"RESIDENCE AL MOURAD, AVENUE MOHAMED V, GUELIZ",
GREY’S CLUB (EX FRUIT OF THE MOON),1 fourchette,Marrakech-Safi,Marrakech,Marrakech,"116, PLACE DU PETIT MARCHE, ROUTE DE TARGA",05.27.99.13.71 06 61 31 66 63
SCENARIO 13 EX LA MARINE,1 fourchette,Marrakech-Safi,Marrakech,Marrakech,"166 BIS, AVENUE ABDELKRIM EL KHATTABI, GUELIZ",06-61-84-78-85
LE QG EX L’ENDROIT,1 fourchette,Marrakech-Safi,Marrakech,Marrakech,"RUE IBN ATIYA, RESIDENCE DIANA, GUELIZ",06 34 42 53 34
LA FOURCHETTE ET LA PLUME,1 fourchette,Marrakech-Safi,Marrakech,Marrakech,"RESIDENCE EL FIRDAOUS, RUE IBN AICHA, GUELIZ",
ABDOU FERRI FOOD,1 fourchette,Marrakech-Safi,Marrakech,Marrakech,"6, AVENUE HASSAN II, GUELIZ",
LITTLE ITALY CITY,1 fourchette,Marrakech-Safi,Marrakech,Marrakech,"63, BD MOHAMED V, GUELIZ",05 24 44 7 5 47 06 60 08 29 97
LE COMPTOIR DU PACHA,2 fourchettes,Marrakech-Safi,Marrakech,Marrakech,"218, ARSET AOUZAL",05 24 383 916 06 48-687066
MYAH BAY,2 fourchettes,Marrakech-Safi,Marrakech,Marrakech,"ASKEJOUR, ROUTE DE L’AEROPORT",05 24 37 2 2 31
LA CUISINE DE MONA,1 fourchette,Marrakech-Safi,Marrakech,Marrakech,"115 B, RESIDENCE MAMOUNE 5, CAMP EL GHOUL, (PLACE DES ORANGERS)",06 18 13 79 59
CHEESE ME,1 fourchette,Marrakech-Safi,Marrakech,Marrakech,"68, RUE DE LA LIBERTE",05 24 4-4 97 42
BELARJ,1 fourchette,Marrakech-Safi,Marrakech,Marrakech,"113, TOUALT BELLARJ, BERRIMA",06 53 63 50 49
DAR LIËN EX LE JO’S,1 fourchette,Marrakech-Safi,Marrakech,Marrakech,"6, RESIDENCE PALACIO,RUE MED EL BAQAL",06 44-00 07 00
LE LOFT,2 fourchettes,Marrakech-Safi,Marrakech,Marrakech,"18, RESIDENCE PALACIO, RUE LA LIBERTE",05 24 4-3 42 16
RESTAURANT KSAR,2 fourchettes,Marrakech-Safi,Marrakech,Marrakech,"1, KAA ESSOUR, SIDI BEN SLIMANE",
AMAZOZ EX RESTAURANT ROCK N’KECH,1 fourchette,Marrakech-Safi,Marrakech,Marrakech,"KESSARIAT BEN KHALED, RUE FATIMA EZZAHRA, R’MILA",06 43 22 14 70.
L’ENTREPOTES BY GRATIA (EX L'ENTREPOTES),1 fourchette,Marrakech-Safi,Marrakech,Marrakech,"61, RUE TARIQ IBN ZIAD",05 24 42 21 25
LE DROP EX LE DEUCESS EX LE DUO 80» EX METRO 80,1 fourchette,Marrakech-Safi,Marrakech,Marrakech,"27, AVENUE HASSAN II, QUARTIER GARE ONCF",05 24 42 08 87
TABLE 26 (EX RIAD MALAK),1 fourchette,Marrakech-Safi,Marrakech,Marrakech,"RUE KHALID BEN EL OUALID, GUÉLIZ",06.79.23.27.16
TIERRAY MAR EX CHEZ PASCAL,1 fourchette,Marrakech-Safi,Marrakech,Marrakech,"96, RÉSIDENCE KELY MAGASIN 1, RUE MOHAMED EL BAQUAL, GUÉLIZ",05 24 44 74 1
MONTECRISTO,2 fourchettes,Marrakech-Safi,Marrakech,Marrakech,"20, RUE IBN AICHA, GUELIZ MARRAKECH",05 24 43 90 31
DAMAS MAGIC,1 fourchette,Marrakech-Safi,Marrakech,Marrakech,"9 ET 10, RESIDENCE KELLY N° 96,RUE LA LIBERTE, GUELIZ MARRAKECH",
POINT BAR,1 fourchette,Marrakech-Safi,Marrakech,Marrakech,3 BIS RUE ABOU HAYANE TAOUHIDI GUELIZ,05 24 4-3 30 40
(MAMMA MIA EX )LIO,1 fourchette,Marrakech-Safi,Marrakech,Marrakech,RUE LIBERTE N° 18 GUELIZ,05 24 43 44 54
LE MIROIR MAGNIFIQUE,2 fourchettes,Marrakech-Safi,Marrakech,Marrakech,"VILLA KETTY, RUE IBN OHOUD, HIVERNAGE, MARRAKECH",06 06 54 47 06
CHEZ PEPON,1 fourchette,Marrakech-Safi,Marrakech,Marrakech,"60, RESIDENCE AL ANDALOUS, RUE YOUGOSLAVIE, MARRAKECH",05 24 43 29 00
LA TABLE ESPAGNOLE (EX LE BON MARCHE),1 fourchette,Marrakech-Safi,Marrakech,Marrakech,"34, RUE DE LA LIBERTE, GUELIZ, MARRAKECH",05 24 43 31 43
LE MAESTRO,1 fourchette,Marrakech-Safi,Marrakech,Marrakech,RUE YOUGOUSLAVIE,05 24 4-5 85 11
TERRE ET MER,1 fourchette,Marrakech-Safi,Marrakech,Marrakech,"100 RUE YOUGOSLAVIE, GUELIZ",0524-43-44-26
MANDALOUN,2 fourchettes,Marrakech-Safi,Marrakech,Marrakech,AV. MOHAMMED VI,05 24 43 42 34
DAR DIAFFA,LUXE,Marrakech-Safi,Marrakech,Marrakech,N°1 JBEL LAKHDAR,05.24.38.68.93
STYLIA,LUXE,Marrakech-Safi,Marrakech,Marrakech,"34, RUE LKSOUR",05.24.44-35-87/05.24.44-05-05
YACOUT,LUXE,Marrakech-Safi,Marrakech,Marrakech,"79, SIDI AHMED SOUSSI",05.24.38-29-00/05.24.38-29-29
CANTOBAR,3 fourchettes,Marrakech-Safi,Marrakech,Marrakech,38/39 AV MOULAY HASSAN I CENTRE KAWKABHAY CHETOUI,0524 43 33 50
CATANZARO,2 fourchettes,Marrakech-Safi,Marrakech,Marrakech,"11, RUE TARIK BEN ZIAD",05 24 43 37 31
DAR MOHA,2 fourchettes,Marrakech-Safi,Marrakech,Marrakech,"81, RUE DAR EL BACHA MEDINA",05 24 38 64 00
DRAGON D’OR,2 fourchettes,Marrakech-Safi,Marrakech,Marrakech,"BD, ZERKTOUNI",0524.43-06-17/0524.44-62-48
JACARANDA,2 fourchettes,Marrakech-Safi,Marrakech,Marrakech,"32, BD ZERKTOUNI",05 24 44 72 15
KSAR CHARHRAMANE,2 fourchettes,Marrakech-Safi,Marrakech,Marrakech,6 RUE BOUCHOUKA AARSET LMAACHE,0524.38-99.18
KSER EL HAMRA,2 fourchettes,Marrakech-Safi,Marrakech,Marrakech,RIAD ZITOUN KADIM SABT BEN DAOUD,0524.42-76.07
LA PAIX,2 fourchettes,Marrakech-Safi,Marrakech,Marrakech,"68, RUE YOUGOSLAVIE",0524.43-31-18/0524.43-67-64
LA TRATORIA,2 fourchettes,Marrakech-Safi,Marrakech,Marrakech,"179, RUE MOHAMED EL BEQAL",0524.43.26.41
NIAGARA,2 fourchettes,Marrakech-Safi,Marrakech,Marrakech,"31,32 CENTRE COMMERICAL ENNAKHIL ROUTE DE TARGA",0524.44-97.75
PALAIS GHARNATA,2 fourchettes,Marrakech-Safi,Marrakech,Marrakech,"56,DERB LAARSA RIAD ZITOUN J’DID",0524.38.96.15/0524.38.95.10
CASA NOSTRA,2 fourchettes,Marrakech-Safi,Marrakech,Marrakech,"N°10, RUE OUED EL MAKHAZINE, RESIDENCE LAFRA",0524 43 38 90
CASA GONZALEZ EX CHEZ JACK’LINE,1 fourchette,Marrakech-Safi,Marrakech,Marrakech,"63, AV. MOHAMED V",0524.44-75-47
DAR BAROUD,1 fourchette,Marrakech-Safi,Marrakech,Marrakech,"275, AV MOHAME V DAR SAIDALIA",0524.42.60.09
SECRET GARDEN (EX LE MURIER BLANC),1 fourchette,Marrakech-Safi,Marrakech,Marrakech,"3, RUE ABOU HAYANE TAOUHIDI, Q HOP IBEN TOFAIL",0524 43 16 56
ALADIN,1 fourchette,Marrakech-Safi,Marrakech,Marrakech,9 CENTRE KAWKAB,0524 42 01 53
MAMI EX THAÏ WOK,1 fourchette,Marrakech-Safi,Marrakech,Marrakech,"7, RUE YOUGOUZLAVIE",0524 45 73 11
LA TABLE DE MONA,1 fourchette,Marrakech-Safi,Marrakech,Marrakech,"RUE CAPITANE ARIGUI, , MAGASIN 2, CAMP EL GHOUL",0618 13 79 59
RESTO DAMIEN TRAITEUR,1 fourchette,Marrakech-Safi,Marrakech,Marrakech,QUATIER INDUSTRIEL,05 24 33 59 69
REST LE KOZYBAR,1 fourchette,Marrakech-Safi,Marrakech,Marrakech,"37,PLACE DES FERBLANTIERS",05 24 38 03 24
PLAZA DE LUXE,1 fourchette,Marrakech-Safi,Marrakech,Marrakech,"11, IMM B7, PLACE 16 NOVEMBRE, GUELIZ",05 24 45 81 57
DAR SOUKKAR,A vocation touristique,Marrakech-Safi,Marrakech,Marrakech,"KM 4, ROUTE DE L'OURIKA",0524 37 55 35/38
BAGATELLE,2 fourchettes,Marrakech-Safi,Marrakech,Marrakech,103 RUE YOUGOSLAVIE,0524.43.02.74
GRAND CAFE RESTAURANT DE LA POSTE,1 fourchette,Marrakech-Safi,Marrakech,Marrakech,"ANGLE BOULEVARD MANSOUR EDDAHBI ET RUE IMAM MALIK, GUELIZ MARRAKECH",05 24 42 27 14
CHEZ PEPON,1 fourchette,Marrakech-Safi,Marrakech,Marrakech,"60, RESIDENCE AL ANDALOUS, RUE YOUGOSLAVIE, MARRAKECH",0524 43 29 00
LE MUST,2 fourchettes,Marrakech-Safi,Marrakech,Marrakech,"RUE CAMILLE CABANA, HIVERNAGE, MARRAKECH,",0254 43 73 97/0525 11 84 64
BJMECANO,1 fourchette,Marrakech-Safi,Marrakech,Marrakech,"194-197, RUE MOHAMED EL BEQAL, RESIDENCE FIRDAOUS, GUELIZ, MARRAKECH",06 72 50 45 36
I LIMONI,1 fourchette,Marrakech-Safi,Marrakech,Marrakech,"40, DIOUR SABOUN, BAB TAGHZOUT, MARRAKECH",0524 38 30 30
MATSURI,2 fourchettes,Marrakech-Safi,Marrakech,Marrakech,"RUE IMAM CHAFIAI, MAGASIN N°1 LOT GUERGOURI, GUELIZ, MARRAKECH",0524 43 37 47
LE CHARLOT,1 fourchette,Marrakech-Safi,Marrakech,Marrakech,"28 ANG AV MD V ET RUE OUM RABII, GUELIZ",05 24 45 74 33
YAKOUT ET DELICATESSEN,1 fourchette,Marrakech-Safi,Marrakech,Marrakech,10 IM A-B RUE YOUGOSLAVIE GUELIZ MARRAKECH,05 24 44 88 10
ALUZIO,1 fourchette,Marrakech-Safi,Marrakech,Marrakech,"34 ET 35 KAWKAB CENTER, AVENUE MOULAY HASSAN I ET RUE IMAM CHAFII, MARRAKECH",05-24-44-88-45
TETERIA,1 fourchette,Marrakech-Safi,Marrakech,Marrakech,"1, RUE IBN AICHA, RESIEDENCE LES HUITS PALMIERS, MARRAKECH",05-24-45-71-56
LA CANTINE PARISIENNE,2 fourchettes,Marrakech-Safi,Marrakech,Marrakech,"ANGLE IBN HANBAL ET OUM EL BANINE RDC RESIDENCE MAHA, GUELIZ, MARRAKECH",05-24-45-85-65
LA COLLINE ASSOUFID MARRAKECH,2 fourchettes,Marrakech-Safi,Marrakech,Marrakech,"LIEU DIT ASSOUFID, C.R SAADA, MARRAKECH",05-24-33-98-00
HOTEL RESTAURANT DU FOLKLORE CHEZ ALI,2 fourchettes,Marrakech-Safi,Marrakech,Marrakech,"OUAHAT SIDI BRAHIM, MARRAKECH",05-24-30-77-30
TEMPLE D' ANGKOR,1 fourchette,Marrakech-Safi,Marrakech,Marrakech,"ANGLE RUE CAPITAINE ARRIGUI ET RUE DARAA, REZ DE CHAUSSEE DE L'IMMEUBLE MARAMAS 18 MARRAKECH",05-40-15-07-07
ICE ROOM,1 fourchette,Marrakech-Safi,Marrakech,Marrakech,"LOTISSEMENT BOUIZGAREN, ROUTE DE SAFI, RESIDENCE OASIS, MAGASIN N°2 MARRAKECH",06-78-20-95-77
COCOTTE,2 fourchettes,Marrakech-Safi,Marrakech,Marrakech,"CLUB HOUSE MONTGOMERY, COMPLEXE PRESTIGIA, AV MOHAMED VI, MARRAKECH",05-24-37-06-51
LE PETIT CHINOI,1 fourchette,Marrakech-Safi,Marrakech,Marrakech,"RUE JBEL SARHO RESIDENCE FLEUR D'ORANGER 2, MARRAKECH",05-24-43-31-36
LVT,1 fourchette,Marrakech-Safi,Marrakech,Marrakech,"N°10, RUE LOUBNANE, GUELIZ",05-24-45-73-78
MAZAJ RESTO,1 fourchette,Marrakech-Safi,Marrakech,Marrakech,"N°100, RUE YOUGOSLAVIE, GUELIZ",05-24-43-44-26
ARABESQUE RAK,2 fourchettes,Marrakech-Safi,Marrakech,Marrakech,"RESIDENCE M'BARKA, RUE MOHAMED EL BAQAL, N°120, MAGASIN N°9, GUELIZ MARRAKECH",05-24-43-10-40
ATLAS TICHKA,A vocation touristique,Marrakech-Safi,HAOUZ,ASNI,CENTRE IMLIL ASNI,0 661 67 64 78
DAR TIFLOUTE,1 fourchette,Marrakech-Safi,HAOUZ,OUZGUITA,CENTRE LALLA TAKERKOUST,
PLATEAU KIK,A vocation touristique,Marrakech-Safi,HAOUZ,TAHENNAOUT,CENTRE MY BRAHIM,05-24-34-30-75
LA KASBAH DE L’OURIKA,3 fourchettes,Marrakech-Safi,HAOUZ,OURIKZ,CENTRE AGUBALO SETTI-FADMA,05244-84536
DOMAINE D’AMANAR,1 fourchette,Marrakech-Safi,HAOUZ,AGHOUATIM,C R AGHOUATIM,05 244-38103
LE RELAIS DU LAC,1 fourchette,Marrakech-Safi,HAOUZ,OUZGUITA,CENTRE LALLA TAKERKOUST,0 524 484 943
COULEURS BERBERES,2 fourchettes,Marrakech-Safi,HAOUZ,OUZGUITA,C R OUZGUITA,05-24-43-34-02
LA PERLA DU LAC,2 fourchettes,Marrakech-Safi,HAOUZ,OUZGUITA,CENTRE LALLA TAKEKOUST,06-67-23-60-51
OURIKA IFOULKI,1 fourchette,Marrakech-Safi,HAOUZ,OURIKA,"DOUAR EL HAJEB, OURIKA, PROVINCE AL HAOUZ",0524 48 29 74
LE MULLIGAN SAMANAH GOLF,2 fourchettes,Marrakech-Safi,HAOUZ,TAMESLOUHT,C R TAMESLOHT,05-24-48-31-18
ENZAH AIT OURIR,1 fourchette,Marrakech-Safi,HAOUZ,AIT OURIR,PACHALIK AIT OURIR,05-24-48-01-01
LES JARDINS DES SENTEURS,1 fourchette,Marrakech-Safi,HAOUZ,TAHENNAOUT,"DOUAR SHIB EL FOUQUANI, TAHANAOUATE, PROVINCE D’AL HAOUZ",06-00-06-55-69
DOLLAR,1 fourchette,Marrakech-Safi,Marrakech,Marrakech,"N°92, IMM GHITA, BOULEVARD ZERKTOUNI, GUELIZ, MARRAKECH",06-61-60-50-50
K-EVENTS,1 fourchette,Marrakech-Safi,Marrakech,Marrakech,"N°6, DERB AARJANE, RAHBA LAKDIMA, MARRAKECH",05-24-38-16-09
LE MEZZ EX PALAIS M,2 fourchettes,Marrakech-Safi,Marrakech,Marrakech,N°9 BD DU 7ÈME ART ZT AGUEDAL,05-24-38-56-77
WHITE MUSIC IN DREAMS,2 fourchettes,Marrakech-Safi,Marrakech,Marrakech,30 BIS ET 30 TIERCE KAWKAB CENTRE RUE IMAM CHAFII ET RUE MOULAY HASAN,06-61-84-78-85
BLACK BARN,1 fourchette,Marrakech-Safi,Marrakech,Marrakech,N° 12 RUE ABOUBAKER ESSEDIK GUELIZ,06-24-68-26-77
LE BOL DE SAIGON,1 fourchette,Marrakech-Safi,Marrakech,Marrakech,N° 35 BIS AVENUE ABDELKRIM EL KHATTABI GUELIZ,06-63-50-67-47
PALAIS JAD MAHAL,2 fourchettes,Marrakech-Safi,Marrakech,Marrakech,N° 10 RUR HAROUNE ERRACHID HIVERNAGE GUELIZ,05-24-43-69-84/448135
LE ZELIGE,1 fourchette,Marrakech-Safi,Marrakech,Marrakech,N°12 RUE MOHAMED EL BAQQAL GUÉLIZ,06-98-91-85-08
MANT CHEGO,2 fourchettes,Marrakech-Safi,Marrakech,Marrakech,"MENARA MALL AV, MED VI",06-21-11-11-94
RESTAURANT TEMPO,1 fourchette,Marrakech-Safi,Marrakech,Marrakech,N°149 RUE HALID IBN AL OUALID GUÉLIZ,06-13-20-63-40
LE 11 LOUNGE EX SOUKARA RESORT,1 fourchette,Marrakech-Safi,Marrakech,Marrakech,KM 13 ROUTE DE L'OURIKA CR TASSOULTANTE,06 63 02 68 06
LE BAR A QUI?,1 fourchette,Marrakech-Safi,Marrakech,Marrakech,IMM BOUNHAR ANGLE RUE IBN ATIYYA ET RUE BADR GUELIZ,06-55-85-19-96
RESTAURANT BOMBAY,2 fourchettes,Marrakech-Safi,Marrakech,Marrakech,N°29 RUE IBN AICHA GUELIZ,06-18-18-20-08
LILLY RESTAURANT,1 fourchette,Marrakech-Safi,Marrakech,Marrakech,N°18 RESIDENCE KARIMA RUE CADI AYYAD GUELIZ,06-62-08-57-59
RESTAURANT L'ENVERS,1 fourchette,Marrakech-Safi,Marrakech,Marrakech,N°29 RUE IBN AICHA GUELIZ,06-61-24-02-70
LE BAROMETRE MARRAKECH,2 fourchettes,Marrakech-Safi,Marrakech,Marrakech,N°1 ET2 RESIDENCE AL HOUDA RUE MOULAY ALI GUELIZ,06-00-05-60-24
THE TURN,2 fourchettes,Marrakech-Safi,Marrakech,Marrakech,CLUB HOUSE DU GOLF TONY JACKLIN MARRAKECH ARGAN GOLF RESORT CHRIFIA,06 61 38 04 24
LATITUDE 31,2 fourchettes,Marrakech-Safi,Marrakech,Marrakech,N° 186 RUE LAGZA ARSET IHIRI MEDINA,05 24 38 49 34
LA TERRASSE DES EPICES,2 fourchettes,Marrakech-Safi,Marrakech,Marrakech,N° 15 SOUK CHRIFIA SIDI ABDELAZIZ MEDINA,05 24 37 50 04
LE PETIT CORNICHON,2 fourchettes,Marrakech-Safi,Marrakech,Marrakech,N° 11 RUE TARIK IBN ZIYAD IMM AL MOKHTAR GU2LIZ,
BO ET ZIN,2 fourchettes,Marrakech-Safi,Marrakech,Marrakech,"KM 3,5 DOUAR LAHNA ROUTE DE L'OURIKA CR TASSOULTANTE",05 24 38 80 12
LA MAISON ARABE,2 fourchettes,Marrakech-Safi,Marrakech,Marrakech,N° 9 DERB ESSAHB TRIK JBEL LAKHDAR BAB DOUALA MEDINA,05 24 38 70 10
UN DEJEUNER A MARRAKECH,1 fourchette,Marrakech-Safi,Marrakech,Marrakech,N° 4 ANGLE RUE KENNARIA ET RUE GRAOUA MEDINA,06 11 27 89 19 05 24 37 83 87
RESTAURANT DAR ZYAD,2 fourchettes,Marrakech-Safi,Marrakech,Marrakech,N°21 ET 22 RESIDENCE MERIEM AV MED VI MARRAKECH,05 24 20 19 18
PH AND R,2 fourchettes,Marrakech-Safi,Marrakech,Marrakech,KM 11 ROUTE DE L'OURIA CR AGHOUATIM,05 24 30 10 10
PIZZERIA RESTAURANT LA STRADA,1 fourchette,Marrakech-Safi,Marrakech,Marrakech,N° 90 RUE MOHAMED EL BEQQAL GUELIZ,06 61 23 06 31
RESTAURANT MOJITO,1 fourchette,Marrakech-Safi,Marrakech,Marrakech,RDC ET MEZZANINE N40 AVENUE HASSAN II GUELIZ MARRAKECH,06 61 30 67 87
RESTAURANT L'EXOCET,1 fourchette,Marrakech-Safi,Marrakech,Marrakech,"N°1 , 2 ET 3 CENTRE COMMERCIAL NAKHIL ROUTE DE TARGA GUEKIZ MARRAKECH",06 61 15 61 08
RESTAURANT LE STOP,1 fourchette,Marrakech-Safi,Marrakech,Marrakech,N° 56 RESIDENCE ASBAHANI RUE ZOUBAIR BEN EL AOUAM GUELIZ,
RESTAURANT LA CUEVA,1 fourchette,Marrakech-Safi,Marrakech,Marrakech,N°4 RUE TARIK IBN ZIYAD GUELIZ MARRAKECH,
GUEST HOUSE,1 fourchette,Marrakech-Safi,Marrakech,Marrakech,N°18 AVENUE YAACOUB EL MANSOUR GUELIZ MARRAKECH,06 87 98 33 18
RESTAURANT MAROGOLF,2 fourchettes,Marrakech-Safi,Marrakech,Marrakech,CLUB HOUSE DU GOLF AMELKIS ROUTE DE OUARZAZATE MARRAKECH,06 46 10 00 25
LE TROU AU MUR BAR AND RESTAURANT,2 fourchettes,Marrakech-Safi,Marrakech,Marrakech,N° 39 DERB EL FARNATCHI KAAT BENNAHID MEDINA MARRAKECH,05 24 38 49 10
THE MOON CLUB,2 fourchettes,Marrakech-Safi,Marrakech,Marrakech,N° 12 RUE ABOUBAKER ESSEDIK GUELIZ MARRAKECH,06 61 19 31 00
REDSINATRA,2 fourchettes,Marrakech-Safi,Marrakech,Marrakech,N° 62 ANGLE RUE YOUGOSLAVIE ET RUE LA LIBERTE GUELIZ MAARRAKECH,06 70 02 23 51
REGNO DI NAPOLI EX DELITALY ITALIAN FOOD,2 fourchettes,Marrakech-Safi,Marrakech,Marrakech,ANGLE RUE IMAM CHAFII RDC RESIDENCE JAWHARA GUELIZ MARRAKECH,05 24 44 68 47
MOD MILANO 1933,3 fourchettes,Marrakech-Safi,Marrakech,Marrakech,PROP DITE YVETTE QUARTIER HIVERNAGE MARRAKECH,05 24 43 70 45
CHIC CHATAU,1 fourchette,Marrakech-Safi,Marrakech,Marrakech,N°55 BOULEVARD ZERKTOUNI GUELIZ MARRAKECH,06 63 31 39 58
FAKTORY'Z,2 fourchettes,Marrakech-Safi,Marrakech,Marrakech,N°92 RESIDENCE HAMDANE 2 RUE YOUGOSLAVIE GUELIZ MARRAKECH,06 63 04 45 59
ASIAN RESTAURANT LOUNGE,2 fourchettes,Marrakech-Safi,Marrakech,Marrakech,"""RDC IMMEUBLE LOUISE N°18 MAGASIN N°6 ET 6A RUE DE LA LIBERTE GUELIZ""",05 24 20 13 13
MALAK EMERAUDE,2 fourchettes,Marrakech-Safi,Marrakech,Marrakech,MARRAKECH MENARA MALL ANGLE AVENUE MED VI ET MY RACHID (TERRASSE DU RESTAURANT D'ANIMATION BLOC B),07 00 72 07 00
BLEND BROTHERS,2 fourchettes,Marrakech-Safi,Marrakech,Marrakech,N24 IMMEUBLE NOUR EL MOUSTAKBAL COMMERCE N°1 RUE MY ALI GUELIZ,06 61 18 54 13
SPICY ASIAN KITCHEN,2 fourchettes,Marrakech-Safi,Marrakech,Marrakech,RUE MED EL BEQAL GUELIZ MARRAKECH,0524 20 10 60/0661310173
